{"type":"FeatureCollection","features":[{"type":"Feature","properties":{"name":"I. kerület","ref":"1"},"geometry":{"type":"Polygon","coordinates":[[[19.0237728,47.495522],[19.0261969,47.4953074],[19.0327423,47.4863665],[19.0411835,47.4857054],[19.0513614,47.4888863],[19.0447988,47.4966665],[19.0423588,47.5077016],[19.026598,47.5076463],[19.0244379,47.5049879],[19.0237728,47.495522]]]}},{"type":"Feature","properties":{"name":"II. kerület","ref":"2"},"geometry":{"type":"Polygon","coordinates":[[[18.9251057,47.5441443],[18.9297897,47.5418333],[18.9357518,47.5433397],[18.9348292,47.5335871],[18.9472883,47.5257319],[18.9521909,47.5282293],[18.9576881,47.5247179],[18.9729958,47.5202206],[18.9962265,47.5173976],[19.0085929,47.5099631],[19.0209355,47.5084322],[19.0248478,47.5060708],[19.0275073,47.5080309],[19.0423588,47.5077016],[19.0403881,47.5220728],[19.042187,47.5267887],[19.0246811,47.5311597],[19.0177859,47.5295295],[19.0134012,47.5379281],[19.0063812,47.540205],[19.0109775,47.5419495],[19.0057191,47.546083],[19.0044581,47.5506773],[19.0011924,47.553047],[19.0018684,47.555908],[18.998824,47.5546034],[18.987092,47.569181],[18.978744,47.573825],[18.959585,47.5778639],[18.9425905,47.578906],[18.9394691,47.5756486],[18.9288432,47.5724407],[18.9381149,47.5571891],[18.9335623,47.5559461],[18.940496,47.5527905],[18.9408244,47.5507918],[18.9251057,47.5441443]]]}},{"type":"Feature","properties":{"name":"III. kerület","ref":"3"},"geometry":{"type":"Polygon","coordinates":[[[18.9772115,47.5739078],[18.987092,47.569181],[18.998824,47.5546034],[19.0018684,47.555908],[19.0011924,47.553047],[19.0044581,47.5506773],[19.0057191,47.546083],[19.0109775,47.5419495],[19.0063812,47.540205],[19.0134012,47.5379281],[19.0177859,47.5295295],[19.0246811,47.5311597],[19.042187,47.5267887],[19.0563509,47.5417497],[19.0634771,47.5540737],[19.0674065,47.5636017],[19.0728392,47.5893223],[19.0712811,47.5894956],[19.0718181,47.5975358],[19.0767223,47.6068533],[19.0602037,47.6094768],[19.0381747,47.609626],[19.0252812,47.6045889],[19.029707,47.5996609],[19.0344669,47.5869376],[19.01985,47.5876438],[19.0016873,47.5834365],[18.9969086,47.5859382],[18.993828,47.5837556],[18.9830234,47.5890291],[18.9777865,47.5857341],[18.9850891,47.5831117],[18.9772115,47.5739078]]]}},{"type":"Feature","properties":{"name":"IV. kerület","ref":"4"},"geometry":{"type":"Polygon","coordinates":[[[19.0671975,47.5631371],[19.0784815,47.5598989],[19.0844536,47.5537001],[19.086098,47.5542956],[19.1027273,47.5423249],[19.1203782,47.5867754],[19.1234631,47.599848],[19.1086333,47.6058353],[19.10726,47.6072473],[19.1090625,47.6103547],[19.0992826,47.6131468],[19.0885455,47.6045492],[19.0745731,47.5891295],[19.0728392,47.5893223],[19.0671975,47.5631371]]]}},{"type":"Feature","properties":{"name":"IX. kerület","ref":"9"},"geometry":{"type":"Polygon","coordinates":[[[19.0549817,47.4857658],[19.0640654,47.4783738],[19.0669219,47.4737051],[19.0673519,47.4678078],[19.0639288,47.4619344],[19.0737247,47.461022],[19.0781114,47.4583241],[19.0843676,47.4515116],[19.0878896,47.4399582],[19.0934333,47.4413702],[19.1283295,47.4647109],[19.0615618,47.4897519],[19.0549817,47.4857658]]]}},{"type":"Feature","properties":{"name":"V. kerület","ref":"5"},"geometry":{"type":"Polygon","coordinates":[[[19.0420223,47.5147097],[19.0424448,47.5030511],[19.0447988,47.4966665],[19.0549817,47.4857658],[19.0604114,47.4885684],[19.061762,47.4902598],[19.059825,47.4945652],[19.0548547,47.4979537],[19.0556447,47.5104698],[19.0420223,47.5147097]]]}},{"type":"Feature","properties":{"name":"VI. kerület","ref":"6"},"geometry":{"type":"Polygon","coordinates":[[[19.0551977,47.509831],[19.0554605,47.4976456],[19.0808372,47.5112158],[19.0723516,47.5185558],[19.0661392,47.5162078],[19.0637132,47.5178869],[19.0595925,47.5157544],[19.0551977,47.509831]]]}},{"type":"Feature","properties":{"name":"VII. kerület","ref":"7"},"geometry":{"type":"Polygon","coordinates":[[[19.0551614,47.497552],[19.0599627,47.494314],[19.0847297,47.5019901],[19.0911378,47.5019853],[19.0808372,47.5112158],[19.0551614,47.497552]]]}},{"type":"Feature","properties":{"name":"VIII. kerület","ref":"8"},"geometry":{"type":"Polygon","coordinates":[[[19.0599627,47.494314],[19.0634599,47.4888219],[19.098662,47.4756182],[19.1086381,47.4882949],[19.1090905,47.4966447],[19.1082765,47.5001775],[19.0847297,47.5019901],[19.0599627,47.494314]]]}},{"type":"Feature","properties":{"name":"X. kerület","ref":"10"},"geometry":{"type":"Polygon","coordinates":[[[19.098662,47.4756182],[19.1266461,47.4654516],[19.1317013,47.4665883],[19.1512367,47.4636984],[19.1726661,47.4581723],[19.1686804,47.4610828],[19.1691328,47.4628021],[19.1779986,47.4640089],[19.1786873,47.4672948],[19.1924152,47.4589337],[19.2216553,47.4923208],[19.1721699,47.5021823],[19.1667977,47.506726],[19.113843,47.5010223],[19.1082765,47.5001775],[19.1086381,47.4882949],[19.098662,47.4756182]]]}},{"type":"Feature","properties":{"name":"XI. kerület","ref":"11"},"geometry":{"type":"Polygon","coordinates":[[[18.9702877,47.4761415],[18.978875,47.4688119],[18.9826683,47.4607778],[18.9810547,47.4552125],[18.9699958,47.4511847],[18.9785156,47.4472023],[18.9792097,47.4378484],[18.9774284,47.4319279],[18.9743988,47.4294941],[18.9781125,47.4277598],[18.9923012,47.4279311],[19.000066,47.4317167],[19.0047686,47.431883],[19.0147526,47.4485436],[19.0215814,47.4463008],[19.0323802,47.4385041],[19.0348976,47.4389568],[19.0407277,47.4332164],[19.0409444,47.4303945],[19.0477985,47.4298103],[19.0531615,47.4483651],[19.0639288,47.4619344],[19.0675055,47.4697736],[19.0640654,47.4783738],[19.0513614,47.4888863],[19.0408638,47.4856709],[19.0263135,47.4880638],[19.0223238,47.4859404],[19.0228258,47.4828223],[19.017807,47.4854002],[19.0197963,47.4837828],[19.0137835,47.4827896],[19.0095462,47.4845917],[19.0052137,47.483779],[19.0043531,47.4810498],[18.9931416,47.4811792],[18.9921078,47.4785499],[18.9870055,47.4763325],[18.9780679,47.4813185],[18.9779907,47.4789114],[18.9758198,47.4795383],[18.9702877,47.4761415]]]}},{"type":"Feature","properties":{"name":"XII. kerület","ref":"12"},"geometry":{"type":"Polygon","coordinates":[[[18.9348292,47.5335871],[18.935328,47.5226433],[18.9303547,47.5246384],[18.9268967,47.5222438],[18.9334747,47.5207347],[18.9353292,47.5226409],[18.9447868,47.5175182],[18.9338566,47.5070997],[18.9442502,47.5033266],[18.9445975,47.4969936],[18.9398544,47.4978647],[18.9359282,47.4915402],[18.9470626,47.4824417],[18.9550643,47.4863048],[18.9636819,47.4822826],[18.9702877,47.4761415],[18.9758198,47.4795383],[18.9779907,47.4789114],[18.9783322,47.4813322],[18.9870055,47.4763325],[18.9921078,47.4785499],[18.9931416,47.4811792],[19.0043531,47.4810498],[19.0052137,47.483779],[19.0095462,47.4845917],[19.0137835,47.4827896],[19.0197963,47.4837828],[19.017807,47.4854002],[19.0228258,47.4828223],[19.022825,47.4863965],[19.0304323,47.4882602],[19.0261969,47.4953074],[19.0238074,47.49505],[19.0248478,47.5060708],[19.0212148,47.5083318],[19.0085929,47.5099631],[18.9962265,47.5173976],[18.9665663,47.5219692],[18.9522789,47.5282111],[18.9472883,47.5257319],[18.9348292,47.5335871]]]}},{"type":"Feature","properties":{"name":"XIII. kerület","ref":"13"},"geometry":{"type":"Polygon","coordinates":[[[19.0452562,47.5141302],[19.0556447,47.5104698],[19.0637132,47.5178869],[19.0673341,47.5163955],[19.08863,47.5253662],[19.086466,47.5266449],[19.0973526,47.5462042],[19.086098,47.5542956],[19.0844536,47.5537001],[19.0784815,47.5598989],[19.0671975,47.5631371],[19.0563509,47.5417497],[19.0538263,47.5280947],[19.0452562,47.5141302]]]}},{"type":"Feature","properties":{"name":"XIV. kerület","ref":"14"},"geometry":{"type":"Polygon","coordinates":[[[19.0723516,47.5185558],[19.09122,47.5019339],[19.1030314,47.499654],[19.1570525,47.5055627],[19.1537068,47.5126042],[19.1448931,47.5226992],[19.1454422,47.5258453],[19.118496,47.5332649],[19.0973526,47.5462042],[19.086466,47.5266449],[19.08863,47.5253662],[19.0723516,47.5185558]]]}},{"type":"Feature","properties":{"name":"XIX. kerület","ref":"19"},"geometry":{"type":"Polygon","coordinates":[[[19.1138748,47.4550652],[19.1585631,47.4254411],[19.1719792,47.4315339],[19.1571149,47.4385874],[19.1609421,47.4417309],[19.1541008,47.4447309],[19.160847,47.4506522],[19.1611412,47.4555734],[19.1665593,47.4600451],[19.1317013,47.4665883],[19.1266467,47.4658296],[19.1283295,47.4647109],[19.1138748,47.4550652]]]}},{"type":"Feature","properties":{"name":"XV. kerület","ref":"15"},"geometry":{"type":"Polygon","coordinates":[[[19.1027273,47.5423249],[19.118496,47.5332649],[19.1455023,47.5258485],[19.180781,47.5482346],[19.1611232,47.5595248],[19.1743919,47.5642885],[19.157766,47.5762296],[19.151554,47.5739475],[19.145354,47.5781449],[19.1538362,47.5849905],[19.1381137,47.5956474],[19.1403634,47.596402],[19.1381081,47.5998434],[19.1279713,47.5979524],[19.1234631,47.599848],[19.1203782,47.5867754],[19.1027273,47.5423249]]]}},{"type":"Feature","properties":{"name":"XVI. kerület","ref":"16"},"geometry":{"type":"Polygon","coordinates":[[[19.1449653,47.5230412],[19.1537068,47.5126042],[19.1570525,47.5055627],[19.1667977,47.506726],[19.1721699,47.5021823],[19.2216553,47.4923208],[19.2391847,47.4987423],[19.2536901,47.5071736],[19.2635991,47.5083478],[19.258454,47.5203581],[19.2449305,47.5369425],[19.2211482,47.5327422],[19.2104793,47.5400124],[19.2034636,47.5373749],[19.1985332,47.5398106],[19.1949325,47.5375716],[19.1773626,47.5461324],[19.1454422,47.5258453],[19.1449653,47.5230412]]]}},{"type":"Feature","properties":{"name":"XVII. kerület","ref":"17"},"geometry":{"type":"Polygon","coordinates":[[[19.1958834,47.4627495],[19.2055078,47.4582841],[19.2111205,47.4580921],[19.2282029,47.4485795],[19.2349406,47.4474284],[19.2371882,47.4500895],[19.2450494,47.448936],[19.2517482,47.4401677],[19.2808994,47.4363091],[19.2922813,47.4506399],[19.3012638,47.4571781],[19.3076148,47.4564439],[19.3304118,47.4597947],[19.3349258,47.4632105],[19.3310621,47.4674813],[19.3298221,47.4776748],[19.314189,47.4930236],[19.3138981,47.5031401],[19.3208537,47.510182],[19.3183484,47.5153487],[19.2910678,47.5106302],[19.2536901,47.5071736],[19.2391847,47.4987423],[19.2216553,47.4923208],[19.1958834,47.4627495]]]}},{"type":"Feature","properties":{"name":"XVIII. kerület","ref":"18"},"geometry":{"type":"Polygon","coordinates":[[[19.1541008,47.4447309],[19.1609421,47.4417309],[19.1571149,47.4385874],[19.1719792,47.4315339],[19.1591201,47.4254406],[19.1724202,47.4140477],[19.1661928,47.4118644],[19.1732743,47.4067276],[19.1673782,47.4046541],[19.1741851,47.3999292],[19.1720507,47.398528],[19.1755111,47.3960121],[19.1801296,47.3990926],[19.1989987,47.3853659],[19.2058415,47.3954749],[19.2156642,47.4029099],[19.2178394,47.4008766],[19.2261432,47.4074409],[19.2171288,47.4127721],[19.228147,47.4215846],[19.2316902,47.4241808],[19.2347718,47.4231533],[19.2364054,47.426036],[19.2387264,47.4239034],[19.2379199,47.4222537],[19.2469876,47.4192067],[19.2547071,47.4289332],[19.260142,47.4271733],[19.2657695,47.4382332],[19.2517482,47.4401677],[19.2450494,47.448936],[19.2371882,47.4500895],[19.2349406,47.4474284],[19.2282029,47.4485795],[19.2111205,47.4580921],[19.2055078,47.4582841],[19.1958834,47.4627495],[19.1924152,47.4589337],[19.1786873,47.4672948],[19.1779986,47.4640089],[19.1691328,47.4628021],[19.1686804,47.4610828],[19.1726661,47.4581723],[19.1665593,47.4600451],[19.1624283,47.4572202],[19.160847,47.4506522],[19.1541008,47.4447309]]]}},{"type":"Feature","properties":{"name":"XX. kerület","ref":"20"},"geometry":{"type":"Polygon","coordinates":[[[19.0878896,47.4399582],[19.091441,47.4281724],[19.0947585,47.4299122],[19.0996588,47.4258674],[19.1033989,47.4271192],[19.1097274,47.4193763],[19.1136756,47.4220578],[19.1181574,47.4182411],[19.1163136,47.4157503],[19.1206332,47.4115844],[19.1247772,47.4136679],[19.1196115,47.4191221],[19.1293886,47.4250877],[19.142725,47.415869],[19.1591193,47.4250626],[19.1138748,47.4550652],[19.0934333,47.4413702],[19.0878896,47.4399582]]]}},{"type":"Feature","properties":{"name":"XXI. kerület","ref":"21"},"geometry":{"type":"Polygon","coordinates":[[[19.0166532,47.3898082],[19.0188672,47.3880904],[19.0224447,47.3890829],[19.0240622,47.3871571],[19.0276588,47.3884606],[19.0303509,47.3853211],[19.0382316,47.3883735],[19.0439653,47.3850196],[19.0479811,47.3888067],[19.0508724,47.3873791],[19.0536513,47.393375],[19.0628242,47.392037],[19.0645702,47.3934571],[19.0605141,47.3976623],[19.0708615,47.4027654],[19.0836191,47.4048849],[19.0940016,47.3910256],[19.1052232,47.3869689],[19.1091427,47.3947976],[19.1001911,47.412962],[19.0929681,47.4225323],[19.0830818,47.4536917],[19.07435,47.4607893],[19.0639288,47.4619344],[19.0531615,47.4483651],[19.0455135,47.4229454],[19.045096,47.415038],[19.0414142,47.4065922],[19.0339786,47.3965612],[19.0166532,47.3898082]]]}},{"type":"Feature","properties":{"name":"XXII. kerület","ref":"22"},"geometry":{"type":"Polygon","coordinates":[[[18.9515303,47.3939995],[18.9553262,47.3782385],[18.9623767,47.3726234],[18.9725816,47.3807642],[18.9801151,47.3838027],[19.0280483,47.3929094],[19.0339786,47.3965612],[19.0414142,47.4065922],[19.045096,47.415038],[19.0477985,47.4298103],[19.0409444,47.4303945],[19.0407277,47.4332164],[19.0348976,47.4389568],[19.0323802,47.4385041],[19.0215814,47.4463008],[19.0147526,47.4485436],[19.0047686,47.431883],[18.9919205,47.4278919],[18.9781125,47.4277598],[18.9743988,47.4294941],[18.9570469,47.4185927],[18.9568328,47.4143328],[18.9624741,47.3993087],[18.9540778,47.3971046],[18.9515303,47.3939995]]]}},{"type":"Feature","properties":{"name":"XXIII. kerület","ref":"23"},"geometry":{"type":"Polygon","coordinates":[[[19.091441,47.4281724],[19.0929681,47.4225323],[19.1001911,47.412962],[19.1091427,47.3947976],[19.1077418,47.3899777],[19.0981731,47.378676],[19.128191,47.3598382],[19.1404776,47.3496899],[19.1507446,47.3567436],[19.179723,47.3610728],[19.192576,47.3739836],[19.1989987,47.3853659],[19.1801296,47.3990926],[19.1755111,47.3960121],[19.1720507,47.398528],[19.1741851,47.3999292],[19.1673782,47.4046541],[19.1732743,47.4067276],[19.1661928,47.4118644],[19.1724202,47.4140477],[19.1591193,47.4250626],[19.142725,47.415869],[19.1293886,47.4250877],[19.1196115,47.4191221],[19.1247772,47.4136679],[19.1206332,47.4115844],[19.1163136,47.4157503],[19.1181574,47.4182411],[19.1136756,47.4220578],[19.1097274,47.4193763],[19.1033989,47.4271192],[19.0996588,47.4258674],[19.0947585,47.4299122],[19.091441,47.4281724]]]}}]}