{"type":"FeatureCollection","features":[{"type":"Feature","properties":{"name":"Dunaújváros","rank":"county","population":41394},"geometry":{"type":"Point","coordinates":[18.9405,46.9649]}},{"type":"Feature","properties":{"name":"Hódmezővásárhely","rank":"county","population":41781},"geometry":{"type":"Point","coordinates":[20.31961,46.41713]}},{"type":"Feature","properties":{"name":"Nagykanizsa","rank":"county","population":42502},"geometry":{"type":"Point","coordinates":[16.99239,46.45483]}},{"type":"Feature","properties":{"name":"Sopron","rank":"county","population":61589},"geometry":{"type":"Point","coordinates":[16.59835,47.68031]}},{"type":"Feature","properties":{"name":"Érd","rank":"county","population":71338},"geometry":{"type":"Point","coordinates":[18.92138,47.37725]}},{"type":"Feature","properties":{"name":"Budapest","rank":"seat","population":1686222},"geometry":{"type":"Point","coordinates":[19.04024,47.49788]}},{"type":"Feature","properties":{"name":"Békéscsaba","rank":"seat","population":54460},"geometry":{"type":"Point","coordinates":[21.09854,46.6798]}},{"type":"Feature","properties":{"name":"Debrecen","rank":"seat","population":201704},"geometry":{"type":"Point","coordinates":[21.62598,47.5314]}},{"type":"Feature","properties":{"name":"Eger","rank":"seat","population":49499},"geometry":{"type":"Point","coordinates":[20.37437,47.89899]}},{"type":"Feature","properties":{"name":"Győr","rank":"seat","population":130191},"geometry":{"type":"Point","coordinates":[17.63428,47.6835]}},{"type":"Feature","properties":{"name":"Kaposvár","rank":"seat","population":58830},"geometry":{"type":"Point","coordinates":[17.78869,46.35647]}},{"type":"Feature","properties":{"name":"Kecskemét","rank":"seat","population":109450},"geometry":{"type":"Point","coordinates":[19.69223,46.90754]}},{"type":"Feature","properties":{"name":"Miskolc","rank":"seat","population":143502},"geometry":{"type":"Point","coordinates":[20.79004,48.10306]}},{"type":"Feature","properties":{"name":"Nyíregyháza","rank":"seat","population":115359},"geometry":{"type":"Point","coordinates":[21.7168,47.95578]}},{"type":"Feature","properties":{"name":"Pécs","rank":"seat","population":140330},"geometry":{"type":"Point","coordinates":[18.22803,46.07651]}},{"type":"Feature","properties":{"name":"Salgótarján","rank":"seat","population":30910},"geometry":{"type":"Point","coordinates":[19.80056,48.09607]}},{"type":"Feature","properties":{"name":"Szeged","rank":"seat","population":157930},"geometry":{"type":"Point","coordinates":[20.1486,46.25463]}},{"type":"Feature","properties":{"name":"Szekszárd","rank":"seat","population":29707},"geometry":{"type":"Point","coordinates":[18.70166,46.34849]}},{"type":"Feature","properties":{"name":"Szolnok","rank":"seat","population":66426},"geometry":{"type":"Point","coordinates":[20.19463,47.17538]}},{"type":"Feature","properties":{"name":"Szombathely","rank":"seat","population":77757},"geometry":{"type":"Point","coordinates":[16.61876,47.22912]}},{"type":"Feature","properties":{"name":"Székesfehérvár","rank":"seat","population":96024},"geometry":{"type":"Point","coordinates":[18.41081,47.19102]}},{"type":"Feature","properties":{"name":"Tatabánya","rank":"seat","population":64785},"geometry":{"type":"Point","coordinates":[18.39799,47.58384]}},{"type":"Feature","properties":{"name":"Veszprém","rank":"seat","population":56029},"geometry":{"type":"Point","coordinates":[17.90804,47.09338]}},{"type":"Feature","properties":{"name":"Zalaegerszeg","rank":"seat","population":55152},"geometry":{"type":"Point","coordinates":[16.84563,46.84158]}},{"type":"Feature","properties":{"name":"Ajka","rank":"town","population":26408},"geometry":{"type":"Point","coordinates":[17.55873,47.10566]}},{"type":"Feature","properties":{"name":"Baja","rank":"town","population":32759},"geometry":{"type":"Point","coordinates":[18.95173,46.17855]}},{"type":"Feature","properties":{"name":"Budaörs","rank":"town","population":29398},"geometry":{"type":"Point","coordinates":[18.96118,47.46113]}},{"type":"Feature","properties":{"name":"Cegléd","rank":"town","population":36391},"geometry":{"type":"Point","coordinates":[19.79775,47.17164]}},{"type":"Feature","properties":{"name":"Dunaharaszti","rank":"town","population":23604},"geometry":{"type":"Point","coordinates":[19.09122,47.35415]}},{"type":"Feature","properties":{"name":"Dunakeszi","rank":"town","population":42747},"geometry":{"type":"Point","coordinates":[19.12941,47.63167]}},{"type":"Feature","properties":{"name":"Esztergom","rank":"town","population":28642},"geometry":{"type":"Point","coordinates":[18.74034,47.78569]}},{"type":"Feature","properties":{"name":"Fót","rank":"town","population":20859},"geometry":{"type":"Point","coordinates":[19.19801,47.61259]}},{"type":"Feature","properties":{"name":"Gyula","rank":"town","population":27834},"geometry":{"type":"Point","coordinates":[21.27476,46.64387]}},{"type":"Feature","properties":{"name":"Gyál","rank":"town","population":24376},"geometry":{"type":"Point","coordinates":[19.21731,47.38455]}},{"type":"Feature","properties":{"name":"Gyömrő","rank":"town","population":20332},"geometry":{"type":"Point","coordinates":[19.3945,47.42234]}},{"type":"Feature","properties":{"name":"Gyöngyös","rank":"town","population":27645},"geometry":{"type":"Point","coordinates":[19.92912,47.77998]}},{"type":"Feature","properties":{"name":"Göd","rank":"town","population":21876},"geometry":{"type":"Point","coordinates":[19.13416,47.68343]}},{"type":"Feature","properties":{"name":"Gödöllő","rank":"town","population":32524},"geometry":{"type":"Point","coordinates":[19.3477,47.60153]}},{"type":"Feature","properties":{"name":"Hajdúböszörmény","rank":"town","population":29310},"geometry":{"type":"Point","coordinates":[21.50789,47.67166]}},{"type":"Feature","properties":{"name":"Hajdúszoboszló","rank":"town","population":23918},"geometry":{"type":"Point","coordinates":[21.3903,47.44313]}},{"type":"Feature","properties":{"name":"Jászberény","rank":"town","population":25844},"geometry":{"type":"Point","coordinates":[19.91179,47.50305]}},{"type":"Feature","properties":{"name":"Kazincbarcika","rank":"town","population":23990},"geometry":{"type":"Point","coordinates":[20.62233,48.25444]}},{"type":"Feature","properties":{"name":"Kiskunfélegyháza","rank":"town","population":28562},"geometry":{"type":"Point","coordinates":[19.85016,46.71144]}},{"type":"Feature","properties":{"name":"Kiskunhalas","rank":"town","population":26009},"geometry":{"type":"Point","coordinates":[19.48126,46.43045]}},{"type":"Feature","properties":{"name":"Komló","rank":"town","population":21695},"geometry":{"type":"Point","coordinates":[18.26138,46.19117]}},{"type":"Feature","properties":{"name":"Komárom","rank":"town","population":20391},"geometry":{"type":"Point","coordinates":[18.12183,47.74173]}},{"type":"Feature","properties":{"name":"Makó","rank":"town","population":21759},"geometry":{"type":"Point","coordinates":[20.4751,46.21504]}},{"type":"Feature","properties":{"name":"Mosonmagyaróvár","rank":"town","population":34165},"geometry":{"type":"Point","coordinates":[17.27223,47.87318]}},{"type":"Feature","properties":{"name":"Nagykőrös","rank":"town","population":23016},"geometry":{"type":"Point","coordinates":[19.78631,47.03743]}},{"type":"Feature","properties":{"name":"Orosháza","rank":"town","population":25206},"geometry":{"type":"Point","coordinates":[20.67201,46.55828]}},{"type":"Feature","properties":{"name":"Pápa","rank":"town","population":28549},"geometry":{"type":"Point","coordinates":[17.47053,47.32611]}},{"type":"Feature","properties":{"name":"Siófok","rank":"town","population":24021},"geometry":{"type":"Point","coordinates":[18.05416,46.90717]}},{"type":"Feature","properties":{"name":"Szentendre","rank":"town","population":28444},"geometry":{"type":"Point","coordinates":[19.07605,47.66776]}},{"type":"Feature","properties":{"name":"Szentes","rank":"town","population":24905},"geometry":{"type":"Point","coordinates":[20.25664,46.6524]}},{"type":"Feature","properties":{"name":"Szigetszentmiklós","rank":"town","population":40069},"geometry":{"type":"Point","coordinates":[19.04524,47.34871]}},{"type":"Feature","properties":{"name":"Tata","rank":"town","population":23549},"geometry":{"type":"Point","coordinates":[18.32821,47.65162]}},{"type":"Feature","properties":{"name":"Vecsés","rank":"town","population":21383},"geometry":{"type":"Point","coordinates":[19.26431,47.4069]}},{"type":"Feature","properties":{"name":"Veresegyház","rank":"town","population":21039},"geometry":{"type":"Point","coordinates":[19.28688,47.65523]}},{"type":"Feature","properties":{"name":"Vác","rank":"town","population":34001},"geometry":{"type":"Point","coordinates":[19.12783,47.77829]}},{"type":"Feature","properties":{"name":"Ózd","rank":"town","population":30550},"geometry":{"type":"Point","coordinates":[20.28107,48.21918]}}]}