{"type":"FeatureCollection","attribution":"© OpenStreetMap contributors (ODbL)","features":[{"type":"Feature","properties":{"name":"Baranya"},"geometry":{"type":"Polygon","coordinates":[[[17.6250717,45.9881369],[17.6533943,45.9911579],[17.6573502,46.0075836],[17.6384795,46.0187722],[17.6285099,46.0449287],[17.6561737,46.0536493],[17.6554457,46.0608803],[17.6701645,46.0625866],[17.669914,46.0724827],[17.6769985,46.0737099],[17.6809292,46.0916594],[17.6653412,46.1017523],[17.6875886,46.1096418],[17.6802401,46.1190737],[17.6868929,46.1595262],[17.7055283,46.1814577],[17.7029945,46.1951389],[17.7279049,46.2083763],[17.7154645,46.2234662],[17.7283829,46.2335237],[17.7498975,46.2059665],[17.7692111,46.2008566],[17.7943945,46.2266592],[17.802801,46.2191343],[17.812605,46.2222857],[17.8150516,46.2108886],[17.8370757,46.2073216],[17.8609172,46.220524],[17.8709063,46.2152981],[17.8778499,46.2241288],[17.9195345,46.2245539],[17.9345718,46.2406953],[17.927643,46.2570029],[17.9377033,46.2753815],[17.9341946,46.2856301],[17.9486602,46.3036729],[17.9754902,46.3081212],[18.0018453,46.3091309],[18.0075712,46.2973759],[18.0245214,46.3013429],[18.05876,46.2921213],[18.101425,46.302392],[18.1226665,46.28124],[18.1323691,46.291602],[18.1153289,46.292603],[18.1143223,46.3188752],[18.1528215,46.3172841],[18.153771,46.3264278],[18.1643217,46.3196556],[18.1804575,46.3328211],[18.2009195,46.3319893],[18.202775,46.356513],[18.1889128,46.3636417],[18.1856102,46.3978927],[18.2438065,46.4078418],[18.2670135,46.4015273],[18.3130328,46.4174487],[18.3457367,46.4005186],[18.3416663,46.37536],[18.3512095,46.3601906],[18.3865304,46.3501202],[18.3894444,46.3364271],[18.3730545,46.3283349],[18.3756847,46.2936974],[18.3982867,46.2869747],[18.4147123,46.2912579],[18.4220177,46.2772044],[18.4037453,46.2435891],[18.361672,46.2288749],[18.3639837,46.2197469],[18.3815872,46.2156624],[18.4443451,46.2441978],[18.4442435,46.2533331],[18.4667428,46.2538355],[18.4606262,46.2617992],[18.4802976,46.2698951],[18.4755888,46.3003405],[18.5086407,46.2909831],[18.5188514,46.2841408],[18.5170693,46.271983],[18.5302745,46.2686168],[18.5312722,46.2792818],[18.5423099,46.2736173],[18.5387456,46.2439009],[18.5289796,46.2320494],[18.552146,46.2192062],[18.5685666,46.2230889],[18.5698724,46.1994805],[18.5930477,46.1816832],[18.6132569,46.1905205],[18.6788408,46.1397277],[18.6874731,46.1248506],[18.6936628,46.1348233],[18.7469298,46.1098463],[18.7753746,46.1144863],[18.8027743,46.1088411],[18.7699953,46.0946715],[18.7564577,46.067603],[18.733072,46.0454516],[18.7429995,46.0287267],[18.8058861,46.0239275],[18.8380655,46.0418907],[18.8473811,46.0350531],[18.8435735,46.0300944],[18.8687464,46.0210019],[18.8252713,45.9603803],[18.8564487,45.9433015],[18.8384286,45.9470747],[18.8030213,45.9306293],[18.8216375,45.9146492],[18.8072491,45.9031911],[18.8089306,45.879463],[18.7602319,45.8886362],[18.7569043,45.8967929],[18.7216286,45.9052279],[18.7047865,45.9180493],[18.6695203,45.9106871],[18.6595328,45.9168864],[18.6650062,45.8994347],[18.6412809,45.8890397],[18.6549902,45.8741304],[18.6376222,45.868085],[18.6277705,45.8733783],[18.6235534,45.8543238],[18.6147306,45.8530364],[18.6232491,45.8394736],[18.6010945,45.8337902],[18.5951927,45.8213706],[18.5728156,45.8135942],[18.5749232,45.800304],[18.5592826,45.8036559],[18.555439,45.7946424],[18.5325912,45.7937773],[18.5223505,45.7826859],[18.4906707,45.7947168],[18.4821108,45.7654765],[18.4562828,45.7695229],[18.4450763,45.7605196],[18.446853,45.737128],[18.4076301,45.7397119],[18.3979134,45.7446505],[18.4001397,45.7552439],[18.3918949,45.7616983],[18.3642257,45.7729364],[18.3666767,45.7667215],[18.3564332,45.7668788],[18.3390932,45.746955],[18.2964138,45.7608096],[18.2759005,45.7554698],[18.2437187,45.7610245],[18.2303105,45.7787814],[18.1907376,45.7874275],[18.1695489,45.7758412],[18.1504852,45.7872701],[18.1229823,45.7889473],[18.105854,45.7702366],[18.0826924,45.7643075],[18.0267797,45.7772616],[17.9963607,45.7951546],[17.9303114,45.7859115],[17.9061943,45.7921906],[17.8604222,45.7676857],[17.851861,45.7831382],[17.8333314,45.7911555],[17.8262828,45.8095],[17.8096462,45.8037793],[17.7832346,45.8168103],[17.759942,45.8117768],[17.7424018,45.8286534],[17.6882735,45.8387972],[17.6713492,45.8348631],[17.6568681,45.8423678],[17.6516805,45.8482404],[17.6662738,45.8496454],[17.6701952,45.8668322],[17.6891118,45.8735345],[17.6933035,45.858356],[17.7034087,45.8683766],[17.7280247,45.8648638],[17.7347724,45.8790319],[17.7262615,45.8926424],[17.7343236,45.8976898],[17.7204985,45.9055226],[17.7246072,45.9158543],[17.6818109,45.9256239],[17.6760915,45.9362154],[17.6891053,45.9394235],[17.6851819,45.943566],[17.6694031,45.941464],[17.6593189,45.9516228],[17.6538939,45.9504149],[17.6596967,45.9367759],[17.6450219,45.9346902],[17.6250717,45.9881369]]]}},{"type":"Feature","properties":{"name":"Borsod-Abaúj-Zemplén"},"geometry":{"type":"Polygon","coordinates":[[[20.0519069,48.1677197],[20.078844,48.183739],[20.070037,48.191702],[20.134091,48.225182],[20.139631,48.242869],[20.133188,48.253982],[20.206162,48.250979],[20.20383,48.261906],[20.228466,48.262779],[20.235381,48.2713],[20.22798,48.277232],[20.234947,48.279933],[20.286858,48.26164],[20.310963,48.265591],[20.307711,48.273067],[20.325711,48.272794],[20.337465,48.301667],[20.365658,48.316606],[20.374279,48.326989],[20.367629,48.332187],[20.3841231,48.3511552],[20.4098119,48.3658749],[20.4025293,48.3825668],[20.4205802,48.4041449],[20.4167243,48.4189879],[20.4517574,48.4485646],[20.4698187,48.4525456],[20.4641644,48.4641844],[20.5079887,48.4893987],[20.506507,48.534415],[20.5191,48.537519],[20.537471,48.527878],[20.546494,48.544292],[20.586595,48.535759],[20.644056,48.551977],[20.653874,48.561413],[20.679502,48.559516],[20.713132,48.570391],[20.728106,48.56448],[20.835792,48.582788],[20.8377998,48.5742099],[20.8504362,48.5816331],[20.8450791,48.5665165],[20.855241,48.566815],[20.868155,48.551818],[20.922323,48.559453],[20.9346323,48.5383552],[20.941726,48.542892],[20.940982,48.534535],[20.955882,48.533963],[20.9561819,48.5216109],[20.9760869,48.5244429],[20.9815689,48.5177119],[21.015114,48.532313],[21.053353,48.52214],[21.066321,48.525894],[21.090169,48.517478],[21.098018,48.510465],[21.094978,48.499713],[21.117331,48.49109],[21.133938,48.495422],[21.160875,48.521499],[21.1796327,48.5182322],[21.221061,48.537497],[21.2390407,48.5397227],[21.269192,48.52533],[21.305488,48.522249],[21.302762,48.526893],[21.316035,48.533156],[21.309829,48.540179],[21.317739,48.53926],[21.321444,48.547671],[21.313377,48.550841],[21.326875,48.554129],[21.316078,48.555294],[21.319384,48.561201],[21.41545,48.558951],[21.422665,48.578821],[21.440068,48.585237],[21.514091,48.551065],[21.52523,48.522631],[21.54202,48.508395],[21.613933,48.509416],[21.620188,48.469826],[21.6634883,48.4179421],[21.664561,48.392164],[21.701741,48.380695],[21.705367,48.366054],[21.714266,48.366307],[21.711871,48.357617],[21.724435,48.349682],[21.833721,48.333997],[21.837213,48.363253],[21.855087,48.366068],[21.862968,48.355208],[21.881419,48.362586],[21.884298,48.356047],[21.884843,48.367539],[21.897883,48.36256],[21.899796,48.370223],[21.928186,48.361597],[21.926806,48.370899],[21.949198,48.378728],[21.994463,48.377323],[22.021326,48.392749],[22.054605,48.377528],[22.076486,48.387241],[22.086743,48.371564],[22.116297,48.380514],[22.117692,48.3682451],[22.1288962,48.3645227],[22.1262383,48.3581203],[22.1082029,48.3623992],[22.1246012,48.3497814],[22.1047269,48.3462063],[22.1115098,48.3409863],[22.0950955,48.3337952],[22.1023565,48.3309403],[22.1025211,48.3240792],[22.0951054,48.3242725],[22.0955506,48.3318801],[22.0844292,48.3272156],[22.0863245,48.3107871],[22.0653214,48.3128555],[22.0656035,48.297994],[22.0444888,48.308059],[22.023573,48.301736],[22.026464,48.3123255],[22.0144285,48.3114904],[21.9622751,48.2670928],[21.938645,48.2627259],[21.9428169,48.2557662],[21.9202499,48.2395659],[21.8973005,48.2473621],[21.874557,48.2380139],[21.8501547,48.2401202],[21.8424079,48.2231712],[21.8298671,48.2444172],[21.8223392,48.2316462],[21.8148142,48.2402057],[21.8152276,48.2264835],[21.7972964,48.2215693],[21.7997489,48.2138991],[21.7837829,48.2028429],[21.7714604,48.2069433],[21.7713599,48.1939958],[21.7535822,48.1917434],[21.7542326,48.2042937],[21.7333547,48.1971631],[21.7240182,48.2038491],[21.7235308,48.1943387],[21.7314357,48.1930167],[21.7214087,48.1863906],[21.7146224,48.1983486],[21.7109336,48.1931016],[21.6277954,48.1934426],[21.5778973,48.2097701],[21.5700182,48.2000414],[21.5352781,48.1975173],[21.5157224,48.1840623],[21.5251901,48.1796717],[21.5051775,48.1778073],[21.5054917,48.17247],[21.4791209,48.1806399],[21.4710704,48.1667184],[21.4601865,48.1776049],[21.4460011,48.1786595],[21.4239527,48.1589004],[21.4303498,48.1343804],[21.4138019,48.1216086],[21.4233728,48.1067625],[21.4510233,48.0898194],[21.431629,48.0883146],[21.436323,48.0790757],[21.4621127,48.0713105],[21.4375462,48.0683891],[21.4324297,48.0433585],[21.4089213,48.0510711],[21.4156642,48.0368448],[21.4080639,48.0320464],[21.3752358,48.034232],[21.3782272,48.0250293],[21.3525075,48.0339216],[21.3298381,48.0218038],[21.3166507,48.0319604],[21.2932463,48.0289864],[21.2947899,48.0384773],[21.2658434,48.0386541],[21.2588014,48.0601099],[21.2238709,48.039824],[21.229043,48.0275415],[21.2129747,48.0232733],[21.1699703,48.0267303],[21.1695839,48.041933],[21.1499643,48.039809],[21.1314101,48.0482626],[21.1108187,48.0236036],[21.0954285,48.0219725],[21.078803,48.0032235],[21.1046184,47.9814426],[21.1019386,47.9711047],[21.1220012,47.9620932],[21.1117691,47.9325734],[21.0908202,47.9184707],[21.1034855,47.9235779],[21.1246332,47.9149274],[21.0834998,47.8904157],[21.0824829,47.8641589],[21.0526492,47.8532545],[21.0762326,47.8341813],[21.081375,47.8207646],[21.0671526,47.8038744],[21.0660808,47.7905601],[21.0480362,47.7767838],[21.0530018,47.7736545],[21.0361628,47.7465225],[21.021915,47.75819],[20.9985503,47.7524928],[20.9968071,47.7205318],[20.9503963,47.7167357],[20.9341729,47.7048151],[20.9349201,47.6941354],[20.903041,47.6858927],[20.8871052,47.6979551],[20.8875299,47.6777602],[20.9021469,47.6763862],[20.8940499,47.6708008],[20.8519757,47.6753178],[20.8550549,47.661554],[20.8795139,47.6496832],[20.8730607,47.642752],[20.859223,47.6459529],[20.8543373,47.6578731],[20.8374006,47.66245],[20.830497,47.657159],[20.8305676,47.6689878],[20.8014105,47.6821475],[20.7683412,47.6708366],[20.7641903,47.6648055],[20.77175,47.6544101],[20.7086354,47.690372],[20.6876532,47.6868596],[20.6771703,47.694247],[20.6729785,47.6863105],[20.6413981,47.6863656],[20.5689999,47.7178027],[20.5961824,47.7402935],[20.5310699,47.77351],[20.5026223,47.8066184],[20.5131129,47.8384714],[20.50306,47.8633503],[20.4626317,47.8748937],[20.4500175,47.8898953],[20.4479952,47.8990544],[20.4629825,47.9087758],[20.4974422,47.9060641],[20.4938686,47.9202011],[20.5178987,47.9286562],[20.5108845,47.9413064],[20.4984097,47.9410847],[20.4515512,47.9682991],[20.4811884,47.9949834],[20.4904933,48.0238019],[20.4936157,48.0423798],[20.4783827,48.0586041],[20.5024844,48.0674398],[20.4816773,48.0958742],[20.4844117,48.1125902],[20.4757953,48.1298261],[20.4536075,48.1510372],[20.3870239,48.149918],[20.3952244,48.1368793],[20.37569,48.1291098],[20.362195,48.1125075],[20.3613956,48.0922939],[20.3257509,48.1098701],[20.3198317,48.1236413],[20.2874141,48.1232282],[20.2779705,48.1084817],[20.2805766,48.0985523],[20.2485293,48.0889912],[20.2043834,48.0966688],[20.2029257,48.1077251],[20.1701252,48.1156606],[20.1648601,48.1351239],[20.1269576,48.144998],[20.1006549,48.1380075],[20.088997,48.1521958],[20.0657228,48.1546875],[20.0619858,48.1672793],[20.0519069,48.1677197]]]}},{"type":"Feature","properties":{"name":"Budapest"},"geometry":{"type":"Polygon","coordinates":[[[18.9251057,47.5441443],[18.9408244,47.5507918],[18.9288432,47.5724407],[18.9425905,47.578906],[18.9772115,47.5739078],[18.9830234,47.5890291],[19.0344669,47.5869376],[19.0252812,47.6045889],[19.0381747,47.609626],[19.0767223,47.6068533],[19.0745731,47.5891295],[19.0992826,47.6131468],[19.1279713,47.5979524],[19.1381081,47.5998434],[19.1538362,47.5849905],[19.145354,47.5781449],[19.1743919,47.5642885],[19.1611232,47.5595248],[19.190302,47.5389938],[19.2094161,47.5403195],[19.2211482,47.5327422],[19.2449305,47.5369425],[19.2635991,47.5083478],[19.3183484,47.5153487],[19.314189,47.4930236],[19.3349258,47.4632105],[19.3012638,47.4571781],[19.2808994,47.4363091],[19.2657695,47.4382332],[19.2469876,47.4192067],[19.2316902,47.4241808],[19.2174223,47.4127942],[19.2263926,47.4074575],[19.2058415,47.3954749],[19.179723,47.3610728],[19.1404776,47.3496899],[19.0981731,47.378676],[19.1052232,47.3869689],[19.0836191,47.4048849],[19.0439653,47.3850196],[18.9947161,47.3869779],[18.9623767,47.3726234],[18.9513396,47.3925554],[18.9624741,47.3993087],[18.9570475,47.418595],[18.9762365,47.4300716],[18.9785151,47.4472141],[18.9698967,47.4510976],[18.9826683,47.4607778],[18.9636819,47.4822826],[18.9470626,47.4824417],[18.9359282,47.4915402],[18.9455163,47.4993342],[18.9338566,47.5070997],[18.9447868,47.5175182],[18.9268967,47.5222438],[18.935328,47.5226433],[18.9357518,47.5433397],[18.9251057,47.5441443]]]}},{"type":"Feature","properties":{"name":"Bács-Kiskun"},"geometry":{"type":"Polygon","coordinates":[[[18.733072,46.0454516],[18.7564577,46.067603],[18.7699953,46.0946715],[18.8197371,46.1092547],[18.8109555,46.1145666],[18.8398606,46.1454696],[18.8440962,46.1835562],[18.854476,46.1927161],[18.87093,46.193121],[18.865947,46.2075849],[18.8719242,46.2224442],[18.8330619,46.2010506],[18.8226149,46.2086473],[18.8537772,46.236124],[18.8669641,46.2319561],[18.8751695,46.2380614],[18.8624591,46.264698],[18.8673828,46.270036],[18.8921214,46.2597906],[18.9113282,46.2609557],[18.9216629,46.3009558],[18.9194382,46.3154252],[18.8979458,46.338244],[18.8851219,46.3957299],[18.8889369,46.4113477],[18.920224,46.4498448],[18.9223628,46.4749795],[18.8963422,46.5191201],[18.8956714,46.5598702],[18.8590763,46.6066528],[18.8827422,46.636774],[18.917569,46.6375752],[18.9678491,46.6543804],[19.0065256,46.6993351],[18.9782111,46.7651984],[18.9710061,46.7644315],[18.956568,46.7853634],[18.9537711,46.8009796],[18.9354522,46.8089583],[18.9243332,46.8241749],[18.9262342,46.8650345],[18.9582818,46.9059562],[18.9657273,46.9350826],[18.9486704,46.9916034],[18.9773033,47.0412767],[18.95665,47.0641056],[19.0201764,47.0542416],[19.0697588,47.034441],[19.0953845,47.045471],[19.0981846,47.0629905],[19.1321896,47.0717274],[19.1640075,47.0956902],[19.2024805,47.0975471],[19.2091433,47.0891586],[19.2371666,47.1310051],[19.2689813,47.1343751],[19.3119484,47.1204069],[19.3477932,47.0932229],[19.3143943,47.0668788],[19.2953042,47.036076],[19.3191342,47.0127927],[19.3331266,47.0268459],[19.374373,47.0328275],[19.4292328,47.0636332],[19.474447,47.0550055],[19.5060277,47.1189198],[19.5614116,47.1073235],[19.587166,47.120925],[19.6204906,47.0825059],[19.6367317,47.0382516],[19.689668,46.9941719],[19.7797496,46.9486941],[19.8020895,46.9554035],[19.8402963,46.9444837],[19.8767075,46.9979185],[19.9269783,46.9750742],[19.9835103,46.962817],[19.98275,46.9830106],[19.9997163,46.9984834],[20.0696923,47.0195845],[20.1391438,46.983859],[20.1266914,46.9745007],[20.132541,46.9611188],[20.1057139,46.9545155],[20.1049043,46.9419529],[20.108789,46.9365763],[20.1260693,46.9436638],[20.148775,46.9392567],[20.1594587,46.9182025],[20.1230855,46.9059875],[20.1206246,46.8942028],[20.0858082,46.8747218],[20.1146012,46.8428502],[20.0612923,46.8410503],[20.0015503,46.8206228],[20.0299533,46.7963874],[20.0400459,46.8023928],[20.0309156,46.818848],[20.0376761,46.8241199],[20.0617546,46.8067694],[19.9694289,46.7268228],[20.0115029,46.6952464],[19.9806078,46.6372344],[19.9941789,46.6230331],[19.989416,46.6032691],[19.9947356,46.5918013],[19.9437478,46.5484191],[19.8923422,46.5785226],[19.7801594,46.5320803],[19.809587,46.50599],[19.8482679,46.5110532],[19.8952142,46.4806249],[19.8998503,46.4600305],[19.8825347,46.4445403],[19.8986666,46.4196704],[19.8810793,46.386288],[19.8572201,46.3731356],[19.8194911,46.3890132],[19.7436052,46.3502792],[19.7223099,46.362216],[19.6561354,46.3469798],[19.6891921,46.3060507],[19.6381849,46.2644376],[19.6832091,46.2177323],[19.6993099,46.1883238],[19.6825437,46.1797353],[19.6615385,46.1900524],[19.6316031,46.1692415],[19.5631497,46.1769784],[19.5604429,46.1662977],[19.502454,46.1420863],[19.5270685,46.1209367],[19.4644229,46.0952749],[19.4665282,46.081649],[19.4154393,46.0457307],[19.3801798,46.0358061],[19.364162,46.0521699],[19.2816008,46.0145217],[19.30271,45.9915685],[19.2965383,45.9877968],[19.2853496,45.9967585],[19.147739,45.9961247],[19.1337859,46.0371064],[19.10459,46.0400025],[19.0656569,46.0000364],[19.0795568,45.9635326],[19.0058141,45.9587094],[18.9978752,45.9462114],[19.0088503,45.9232971],[18.9946964,45.9238829],[18.9879734,45.9321983],[18.9620183,45.9258707],[18.9060047,45.9352738],[18.8791457,45.9164376],[18.8646283,45.9207495],[18.8682163,45.9112483],[18.8275588,45.9047913],[18.8030213,45.9306293],[18.8384286,45.9470747],[18.8564487,45.9433015],[18.8252713,45.9603803],[18.8687464,46.0210019],[18.8435735,46.0300944],[18.8473811,46.0350531],[18.8380655,46.0418907],[18.8080728,46.0243164],[18.7747323,46.0238562],[18.7643112,46.0314474],[18.7429995,46.0287267],[18.733072,46.0454516]]]}},{"type":"Feature","properties":{"name":"Békés"},"geometry":{"type":"Polygon","coordinates":[[[20.4243859,46.8037207],[20.4075039,46.8595327],[20.4602842,46.9030689],[20.4965123,46.8904703],[20.5376938,46.9001677],[20.5517438,46.9166292],[20.5861152,46.912102],[20.5990544,46.9183984],[20.6413386,46.9002966],[20.6728627,46.9139481],[20.6931656,46.9107678],[20.7206592,46.931538],[20.7274696,46.9539099],[20.7042656,46.9588179],[20.7265448,46.9596329],[20.7136118,46.9731568],[20.7203544,46.9753395],[20.7096396,46.9781533],[20.7183487,47.0001281],[20.7020348,47.012553],[20.7081004,47.035134],[20.7230283,47.0304771],[20.7275013,47.0434124],[20.7562357,47.0532707],[20.7595723,47.035702],[20.8064049,47.0368939],[20.8114543,47.0379629],[20.8028085,47.046093],[20.8405883,47.0595975],[20.8437047,47.069455],[20.861325,47.063083],[20.8434718,47.0789808],[20.852288,47.0925485],[20.8439586,47.0934422],[20.8447409,47.1166646],[20.8683125,47.120867],[20.8474773,47.1482375],[20.8941643,47.1745354],[20.9448542,47.1862794],[20.9552279,47.2089404],[20.9773062,47.2305421],[20.9876348,47.2259335],[21.0096627,47.2320371],[21.0517116,47.1905544],[21.0658003,47.1937355],[21.0607956,47.2090558],[21.125426,47.1751435],[21.2099285,47.1652037],[21.2299816,47.1503465],[21.3009149,47.1508761],[21.2939423,47.1312037],[21.3075831,47.1107475],[21.2916722,47.1038189],[21.2954051,47.0866083],[21.2318441,47.0596482],[21.2404101,47.0373871],[21.2331312,47.0230555],[21.2475012,47.0067771],[21.3549439,46.9797912],[21.4385697,46.9709353],[21.4424765,46.9586629],[21.4301768,46.9573951],[21.4234187,46.9430638],[21.4434869,46.9563537],[21.4845325,46.94139],[21.4966871,46.9517951],[21.5214019,46.956979],[21.5339546,46.9517516],[21.539418,46.9615414],[21.5628048,46.961791],[21.5535653,46.9783771],[21.5691848,47.0027935],[21.6034899,46.9982234],[21.624011,47.0080497],[21.6192782,47.0138676],[21.634818,47.0241887],[21.6419847,47.0177248],[21.6778782,47.0183902],[21.6889507,47.0018204],[21.6703735,46.9801507],[21.6679336,46.9701899],[21.6818429,46.9669311],[21.6731532,46.9537105],[21.6580214,46.9560181],[21.6383305,46.9329974],[21.5986842,46.9274662],[21.5990409,46.9091968],[21.6142,46.8865295],[21.6035123,46.8850041],[21.5968162,46.8613169],[21.5570075,46.8537046],[21.519212,46.8359137],[21.518681,46.7998628],[21.5092255,46.7833602],[21.4832192,46.7647151],[21.5279465,46.7372951],[21.5293422,46.7208103],[21.511102,46.7117223],[21.5075644,46.6980644],[21.4908381,46.6857303],[21.4730032,46.6956373],[21.451163,46.6885301],[21.430051,46.6938662],[21.4309553,46.6781367],[21.4423936,46.6665769],[21.4557082,46.6671027],[21.4548856,46.6611553],[21.4164199,46.6425181],[21.4099891,46.6218365],[21.365614,46.6378313],[21.353202,46.6302062],[21.3299635,46.6315742],[21.3140883,46.6175941],[21.3011224,46.5908157],[21.3207803,46.5828136],[21.2896513,46.5443105],[21.2742187,46.5407104],[21.2604143,46.5019609],[21.2743063,46.4764633],[21.2963246,46.4761514],[21.3177669,46.4506918],[21.289518,46.415478],[21.2962805,46.406696],[21.2253589,46.4135347],[21.2163243,46.4018338],[21.2063155,46.4032299],[21.1965421,46.3708133],[21.1994707,46.3479089],[21.1762269,46.3357664],[21.1731193,46.318443],[21.1805936,46.3041159],[21.1676588,46.2978175],[21.1453362,46.3046349],[21.1155011,46.3016603],[21.103161,46.262589],[21.070879,46.253901],[21.0660828,46.2429394],[21.036624,46.248039],[21.0246723,46.2665329],[20.9608171,46.262304],[20.946585,46.279303],[20.9250702,46.2766191],[20.9221563,46.2618353],[20.890544,46.2713931],[20.873271,46.287756],[20.7891546,46.2731213],[20.7636941,46.2799556],[20.7486468,46.2904622],[20.7628918,46.3412853],[20.7389433,46.3843105],[20.6937087,46.3807886],[20.6823538,46.3512471],[20.6218607,46.351345],[20.5716718,46.3657466],[20.5789759,46.371357],[20.5487323,46.3915691],[20.560132,46.4055073],[20.5827816,46.4082516],[20.5823899,46.4528219],[20.6050274,46.4544153],[20.5946619,46.4770294],[20.6154161,46.5273965],[20.6151584,46.5376844],[20.579484,46.5640726],[20.5764483,46.6319127],[20.5692937,46.6331496],[20.5750179,46.6791563],[20.5927501,46.6800631],[20.5817062,46.7194406],[20.5955995,46.7596265],[20.5628079,46.7760618],[20.5034234,46.7734097],[20.4534467,46.8121242],[20.4243859,46.8037207]]]}},{"type":"Feature","properties":{"name":"Csongrád-Csanád"},"geometry":{"type":"Polygon","coordinates":[[[19.6381849,46.2644376],[19.6891921,46.3060507],[19.6561354,46.3469798],[19.7223099,46.362216],[19.7436052,46.3502792],[19.8194911,46.3890132],[19.8572201,46.3731356],[19.8810793,46.386288],[19.8986666,46.4196704],[19.8825347,46.4445403],[19.8998503,46.4600305],[19.8952142,46.4806249],[19.8482679,46.5110532],[19.809587,46.50599],[19.7801594,46.5320803],[19.8923422,46.5785226],[19.9437478,46.5484191],[19.9947356,46.5918013],[19.989416,46.6032691],[19.9941789,46.6230331],[19.9806078,46.6372344],[20.0115029,46.6952464],[19.9694289,46.7268228],[20.0611969,46.8063963],[20.0664416,46.7907358],[20.0835483,46.7863912],[20.0908403,46.7623306],[20.1070298,46.7682738],[20.1045596,46.7839106],[20.1156694,46.7849534],[20.1754601,46.7546668],[20.1999182,46.7841308],[20.2198144,46.7812621],[20.2183782,46.7919383],[20.2307275,46.7986661],[20.2649593,46.7922117],[20.290451,46.767563],[20.3324376,46.7621434],[20.3453076,46.7673281],[20.3523886,46.7847645],[20.4040302,46.7883506],[20.4243859,46.8037207],[20.4534467,46.8121242],[20.5034234,46.7734097],[20.5628079,46.7760618],[20.5955995,46.7596265],[20.5817062,46.7194406],[20.5927501,46.6800631],[20.5750179,46.6791563],[20.5692937,46.6331496],[20.5764483,46.6319127],[20.579484,46.5640726],[20.6151584,46.5376844],[20.6154161,46.5273965],[20.5946619,46.4770294],[20.6050274,46.4544153],[20.5823899,46.4528219],[20.5827816,46.4082516],[20.560132,46.4055073],[20.5487323,46.3915691],[20.5789759,46.371357],[20.5716718,46.3657466],[20.6218607,46.351345],[20.6823538,46.3512471],[20.6937087,46.3807886],[20.7389433,46.3843105],[20.7628918,46.3412853],[20.7486468,46.2904622],[20.775654,46.27596],[20.749047,46.250849],[20.7618404,46.2044731],[20.7273743,46.2073774],[20.7257261,46.1964348],[20.7340876,46.1937985],[20.7223927,46.1874568],[20.7149982,46.1668539],[20.694897,46.1586539],[20.6870367,46.1455707],[20.6537645,46.1487742],[20.6392272,46.1267305],[20.5494703,46.1771929],[20.5015001,46.1899329],[20.4918491,46.1807961],[20.4951662,46.17091],[20.45911,46.1428791],[20.4263052,46.1452405],[20.397457,46.1574227],[20.3684481,46.152932],[20.3556082,46.1696739],[20.3126284,46.1501723],[20.3091947,46.1564748],[20.2968418,46.1522369],[20.2549185,46.1157964],[20.2482128,46.1298279],[20.233185,46.1238099],[20.1818248,46.1600487],[20.1372866,46.1442264],[20.0958112,46.1772401],[20.0637374,46.1436661],[20.0344381,46.1457582],[20.0157938,46.176777],[19.9351389,46.1761932],[19.9148804,46.1639849],[19.8531941,46.1497905],[19.8178337,46.1277866],[19.7584888,46.1478743],[19.7340335,46.1698249],[19.7179406,46.1715819],[19.6381849,46.2644376]]]}},{"type":"Feature","properties":{"name":"Fejér"},"geometry":{"type":"Polygon","coordinates":[[[18.048597,47.3206409],[18.0342232,47.3403173],[18.0536228,47.3511467],[18.0882212,47.3586793],[18.0800948,47.3742233],[18.1093107,47.4018774],[18.1050688,47.4197416],[18.1184415,47.4251801],[18.1158545,47.4445825],[18.137615,47.4519888],[18.1512885,47.4402958],[18.1719098,47.4488271],[18.1848788,47.4451196],[18.194877,47.4516641],[18.1888675,47.4763723],[18.2413586,47.4584748],[18.2478963,47.43453],[18.2777945,47.4240738],[18.2852501,47.4123172],[18.3116515,47.3990614],[18.3306279,47.4160116],[18.3426868,47.4102002],[18.3773852,47.4182023],[18.3516778,47.4420545],[18.3779792,47.4602533],[18.3995867,47.4513357],[18.4397027,47.4924369],[18.4747646,47.4705292],[18.4801853,47.4892159],[18.4930311,47.4961324],[18.5064886,47.4980988],[18.5442838,47.4822747],[18.5306158,47.5012521],[18.5023651,47.5167329],[18.4851646,47.5490181],[18.4890398,47.5547506],[18.5346248,47.5519129],[18.549077,47.569489],[18.5765919,47.5745558],[18.6171815,47.5648173],[18.6227478,47.5716918],[18.6885359,47.577244],[18.7003701,47.5613126],[18.6921315,47.5486267],[18.6947587,47.5327779],[18.722435,47.4963756],[18.7515427,47.49242],[18.7855833,47.45686],[18.7895284,47.4256639],[18.757147,47.4033223],[18.81149,47.3537338],[18.8636607,47.3191365],[18.867622,47.3145272],[18.8583169,47.3054043],[18.8811361,47.3013987],[18.8733336,47.2866565],[18.8801467,47.2772862],[18.9190647,47.2744845],[18.9101424,47.231247],[18.881508,47.1961136],[18.8720859,47.1508489],[18.898058,47.0761015],[18.9666614,47.0305866],[18.9647428,47.0103642],[18.9486704,46.9916034],[18.9655296,46.9367209],[18.9591381,46.9076044],[18.9250892,46.8571724],[18.9041163,46.8601133],[18.8605953,46.8496769],[18.875439,46.838003],[18.8719223,46.8333917],[18.8354184,46.804696],[18.7928255,46.7857131],[18.7972832,46.7697344],[18.7493397,46.7682666],[18.712842,46.7552244],[18.7312906,46.7259261],[18.7274491,46.7213507],[18.6540598,46.6902659],[18.6285861,46.6920954],[18.6318211,46.7023896],[18.6251641,46.7046522],[18.6317741,46.708482],[18.6200555,46.7206237],[18.6305421,46.7244744],[18.6172179,46.7316586],[18.6176353,46.7449825],[18.5726902,46.7583787],[18.5568954,46.7838124],[18.5039157,46.7639342],[18.5129861,46.7457023],[18.4786211,46.7483734],[18.4648064,46.741262],[18.4692702,46.7386196],[18.4192576,46.7524663],[18.4268337,46.7680978],[18.4183913,46.7798656],[18.4209625,46.7917022],[18.4081243,46.8037933],[18.4035397,46.7698767],[18.3968879,46.7702169],[18.3955938,46.7854443],[18.3856578,46.7819595],[18.3822158,46.7910753],[18.3652352,46.7745996],[18.3200552,46.7905665],[18.3093431,46.7982686],[18.310291,46.8132471],[18.3035231,46.8174234],[18.2520187,46.7845373],[18.210779,46.778241],[18.1983638,46.8130837],[18.2051607,46.8390301],[18.1975501,46.8644914],[18.2062088,46.8673624],[18.1892871,46.8732947],[18.2132863,46.8874539],[18.1937645,46.9280559],[18.1742278,46.9462089],[18.2059605,46.9716706],[18.2126552,46.9994114],[18.2618819,47.020319],[18.2584742,47.0252477],[18.2390619,47.0197819],[18.2130033,47.0485394],[18.2036045,47.0793117],[18.2346048,47.0936301],[18.2238187,47.1057382],[18.2123161,47.1639152],[18.2217753,47.1662708],[18.2177498,47.1738589],[18.2277974,47.1735469],[18.2209761,47.1814931],[18.2249485,47.213893],[18.2165746,47.2246177],[18.1963231,47.2227508],[18.1732011,47.2391689],[18.1710958,47.2532013],[18.1572,47.2642264],[18.1058512,47.2495329],[18.0749696,47.2796973],[18.0542474,47.2782825],[18.0472049,47.3050165],[18.0659821,47.3188879],[18.048597,47.3206409]]]}},{"type":"Feature","properties":{"name":"Győr-Moson-Sopron"},"geometry":{"type":"Polygon","coordinates":[[[16.4215432,47.6652971],[16.443356,47.6741131],[16.4473224,47.6963055],[16.4746589,47.6812582],[16.4760169,47.6901214],[16.4998365,47.70472],[16.5411128,47.7121671],[16.5522184,47.7225134],[16.5364648,47.7366327],[16.5487785,47.7431786],[16.54798,47.751544],[16.6091111,47.7603722],[16.6343,47.7590763],[16.6397433,47.7482637],[16.6560139,47.7416628],[16.7209415,47.7353349],[16.7215112,47.7226116],[16.7490282,47.6814296],[16.8283274,47.6827354],[16.8390637,47.7045815],[16.8669034,47.7216437],[16.875161,47.6883411],[17.0930722,47.7082534],[17.070272,47.7282005],[17.0671746,47.7669029],[17.0509772,47.7939831],[17.0744337,47.8082742],[17.0469132,47.828352],[17.0516099,47.8379073],[17.0099539,47.8583609],[17.0177571,47.8684094],[17.0851896,47.8744352],[17.103971,47.899006],[17.0955832,47.904294],[17.1126871,47.9273598],[17.0909057,47.934408],[17.1170151,47.9608948],[17.0946624,47.970872],[17.171999,48.011821],[17.241769,48.0224651],[17.257955,47.998655],[17.336182,47.992273],[17.376398,47.958646],[17.402993,47.947849],[17.4325057,47.9208615],[17.45392,47.885258],[17.497512,47.867603],[17.526737,47.865509],[17.569161,47.814404],[17.608402,47.821886],[17.708579,47.756678],[17.762956,47.749363],[17.778548,47.739778],[17.866096,47.74575],[17.8947759,47.7393637],[17.9025804,47.7046386],[17.8900788,47.6831893],[17.9010418,47.6714986],[17.8876968,47.637472],[17.8952616,47.6265099],[17.9337681,47.6162213],[17.9124752,47.5851755],[17.9232604,47.5810914],[17.9051504,47.5595879],[17.9368946,47.5480911],[17.9094792,47.5413539],[17.8845542,47.5498629],[17.8849472,47.531968],[17.9113562,47.5063371],[17.9098535,47.4979492],[17.8842255,47.488174],[17.8895108,47.478303],[17.8743432,47.4777918],[17.8733961,47.469787],[17.8853173,47.4638154],[17.8708528,47.4579543],[17.8839036,47.45161],[17.8944699,47.4303957],[17.8771063,47.4035636],[17.8762189,47.3928942],[17.8841328,47.3899251],[17.8246927,47.3603913],[17.8358707,47.3451795],[17.8211583,47.3245331],[17.7808807,47.3229561],[17.7786102,47.3008409],[17.7869578,47.2792267],[17.7675378,47.2722962],[17.7558797,47.3146762],[17.731093,47.3208722],[17.7182694,47.340906],[17.729066,47.3574058],[17.7541014,47.3649293],[17.7646042,47.3840946],[17.7848721,47.3892781],[17.7767107,47.39921],[17.7871354,47.4050638],[17.7841033,47.4133045],[17.7379852,47.4728967],[17.7262922,47.4689516],[17.7225438,47.4616755],[17.7317796,47.4514988],[17.7234243,47.448738],[17.7043151,47.4496574],[17.7116999,47.4652328],[17.7031595,47.4732584],[17.6825557,47.4665394],[17.6700544,47.4721053],[17.6637175,47.4567946],[17.6413949,47.4515722],[17.6423569,47.4576829],[17.6306336,47.4552523],[17.620254,47.4654069],[17.6032976,47.456334],[17.5887005,47.469202],[17.5777245,47.4599203],[17.5818828,47.4519775],[17.5585965,47.4413962],[17.5263852,47.4687749],[17.5032217,47.4349526],[17.482806,47.4228754],[17.4449564,47.4314916],[17.4443696,47.4509094],[17.4191675,47.4673105],[17.4229236,47.4785669],[17.3893819,47.4859277],[17.3829284,47.4587969],[17.3620708,47.4436421],[17.3239389,47.4426938],[17.2935016,47.4292854],[17.2342052,47.4401761],[17.2230314,47.4388592],[17.2221441,47.4319892],[17.2012508,47.4354624],[17.1930395,47.4456145],[17.1755296,47.43276],[17.147306,47.4372509],[17.12519,47.4281248],[17.1256037,47.4167069],[17.0665171,47.4061838],[17.0501014,47.3952314],[17.0432052,47.3996866],[17.0558399,47.4067621],[17.0593791,47.4319609],[17.0713817,47.441305],[17.0554902,47.4608375],[16.9603537,47.4096399],[16.9474759,47.3949301],[16.9316739,47.4114041],[16.909718,47.41328],[16.9053636,47.4238684],[16.8856084,47.4128299],[16.8663972,47.4234861],[16.8470743,47.4490497],[16.8152867,47.435378],[16.8040669,47.4436513],[16.7549957,47.4358284],[16.7187669,47.4180521],[16.7229047,47.4123263],[16.7157568,47.4091376],[16.7092032,47.4177652],[16.678075,47.419718],[16.6467065,47.4469521],[16.6620322,47.4557137],[16.6704924,47.4742622],[16.6523387,47.5003255],[16.6624664,47.5090313],[16.6689584,47.5035445],[16.6898176,47.5104226],[16.7145072,47.5396456],[16.6634407,47.5678494],[16.6751269,47.5787886],[16.6664014,47.5962606],[16.6731434,47.6049581],[16.6595343,47.6061018],[16.652941,47.6222312],[16.6349836,47.627849],[16.572515,47.6198261],[16.5144416,47.6461448],[16.4969303,47.639336],[16.4215432,47.6652971]]]}},{"type":"Feature","properties":{"name":"Hajdú-Bihar"},"geometry":{"type":"Polygon","coordinates":[[[20.8279707,47.6590164],[20.8543373,47.6578731],[20.859451,47.6457928],[20.876539,47.643281],[20.8795139,47.6496832],[20.8550549,47.661554],[20.8519757,47.6753178],[20.8940499,47.6708008],[20.9021469,47.6763862],[20.8875299,47.6777602],[20.8871052,47.6979551],[20.903041,47.6858927],[20.9349201,47.6941354],[20.9341729,47.7048151],[20.9503963,47.7167357],[20.9968071,47.7205318],[20.9957651,47.7380663],[21.0021417,47.7425271],[20.9962015,47.749867],[21.0077724,47.7572897],[21.0252618,47.7569924],[21.0361628,47.7465225],[21.0530018,47.7736545],[21.0480362,47.7767838],[21.0660808,47.7905601],[21.0671526,47.8038744],[21.081375,47.8207646],[21.0762326,47.8341813],[21.0526492,47.8532545],[21.0824829,47.8641589],[21.0834998,47.8904157],[21.0970016,47.9027484],[21.1215318,47.9072656],[21.1225539,47.9186708],[21.1029142,47.923588],[21.0908202,47.9184707],[21.1117691,47.9325734],[21.1220012,47.9620932],[21.146025,47.9532673],[21.151596,47.9649709],[21.1943852,47.95773],[21.2294423,47.9418626],[21.2615892,47.9244644],[21.2616295,47.9118779],[21.2709473,47.9048785],[21.320399,47.9199288],[21.4138268,47.9207285],[21.4311794,47.9287452],[21.4967503,47.925477],[21.4994341,47.9341796],[21.5162208,47.9414437],[21.5655327,47.9297227],[21.5536148,47.9059558],[21.5545505,47.8895837],[21.5658285,47.888583],[21.5561195,47.8750955],[21.541329,47.7904654],[21.5957876,47.7717666],[21.6268082,47.7466731],[21.6360988,47.7293443],[21.6777603,47.7261095],[21.7001267,47.733227],[21.7191053,47.706877],[21.7665162,47.7069117],[21.7705386,47.6972945],[21.7637956,47.6871674],[21.7959068,47.6852618],[21.8025973,47.6740584],[21.8361819,47.6690597],[21.8833954,47.6972819],[21.8877481,47.7261012],[21.9242745,47.7332054],[21.96019,47.7090539],[21.9870153,47.7042153],[21.9809612,47.6757615],[22.0113281,47.6646689],[22.0032807,47.6416256],[22.0217944,47.6202422],[22.0446614,47.6360409],[22.065219,47.6701865],[22.0754598,47.6718081],[22.1045727,47.6580773],[22.104142,47.6310366],[22.1297902,47.5948238],[22.0937016,47.5581442],[22.0792102,47.5622816],[22.0552504,47.5485163],[22.0713566,47.5379795],[22.0615323,47.5290091],[22.0454907,47.5398049],[22.0241721,47.5199758],[22.0070836,47.4833085],[22.0208875,47.4545338],[22.032832,47.4510022],[22.0259466,47.4423848],[22.035534,47.413191],[22.0231184,47.39084],[22.0119295,47.375748],[21.961528,47.3812018],[21.9385227,47.3729991],[21.8787323,47.287407],[21.8878583,47.2721232],[21.8518316,47.2392442],[21.846852,47.2238183],[21.858132,47.2201824],[21.8580152,47.1870085],[21.8175189,47.172799],[21.7914168,47.1240009],[21.792582,47.1065886],[21.7260956,47.0985272],[21.7128186,47.0826272],[21.7163703,47.0748772],[21.6826156,47.0457099],[21.6487388,47.0404368],[21.6582346,47.0215505],[21.6419847,47.0177248],[21.634818,47.0241887],[21.6192782,47.0138676],[21.624011,47.0080497],[21.6034899,46.9982234],[21.5691848,47.0027935],[21.5535653,46.9783771],[21.5628048,46.961791],[21.539418,46.9615414],[21.5339546,46.9517516],[21.5214019,46.956979],[21.4966871,46.9517951],[21.4845325,46.94139],[21.4434869,46.9563537],[21.4234187,46.9430638],[21.4301768,46.9573951],[21.4424765,46.9586629],[21.4385697,46.9709353],[21.3549439,46.9797912],[21.2475012,47.0067771],[21.2331312,47.0230555],[21.2404101,47.0373871],[21.2318441,47.0596482],[21.2954051,47.0866083],[21.2916722,47.1038189],[21.3075831,47.1107475],[21.2939423,47.1312037],[21.3009149,47.1508761],[21.2299816,47.1503465],[21.2099285,47.1652037],[21.125426,47.1751435],[21.0607956,47.2090558],[21.0658003,47.1937355],[21.0517116,47.1905544],[21.0200457,47.2253806],[20.992091,47.2321926],[21.0169813,47.2492824],[21.0305648,47.3562291],[20.9920224,47.4736966],[21.0079151,47.4906658],[20.9934412,47.4956854],[20.9832146,47.519495],[20.9964867,47.5393829],[20.9944929,47.5670592],[20.974098,47.5855386],[20.9456249,47.5960797],[20.882928,47.5820133],[20.8423572,47.5967082],[20.8232036,47.6409895],[20.8279707,47.6590164]]]}},{"type":"Feature","properties":{"name":"Heves"},"geometry":{"type":"Polygon","coordinates":[[[19.5709386,47.7349031],[19.612077,47.7622227],[19.6294993,47.754138],[19.6392002,47.7632055],[19.6456007,47.7803237],[19.6325441,47.805837],[19.6532933,47.8134134],[19.6638671,47.8001646],[19.6667602,47.8103208],[19.684101,47.8113083],[19.6865055,47.8202607],[19.720209,47.8180075],[19.7156652,47.8235213],[19.7249094,47.8407898],[19.7642668,47.8694826],[19.7667438,47.8843421],[19.7595224,47.8912638],[19.7681544,47.9029914],[19.7772499,47.9048217],[19.8362043,47.8743583],[19.8551442,47.8909889],[19.8411879,47.901319],[19.8303341,47.8961048],[19.8117367,47.9027013],[19.8092025,47.9228954],[19.8806815,47.9303968],[19.8951774,47.9169682],[19.9144244,47.9160652],[19.9332198,47.9254607],[19.9409475,47.9440413],[19.9683192,47.9502693],[19.9640899,47.9716724],[19.9863987,47.9802001],[19.975811,47.9890255],[19.9805151,47.9981971],[19.9965328,48.0072475],[20.0322979,48.0095406],[20.0133104,48.0242155],[20.0080942,48.0520087],[20.0183331,48.0534441],[19.9727783,48.077766],[19.9684584,48.0900142],[19.9765192,48.0956665],[20.041554,48.1065711],[20.0474949,48.123227],[20.0713246,48.1211363],[20.0790447,48.1370595],[20.0922316,48.1430445],[20.1012287,48.1380023],[20.1269576,48.144998],[20.1648601,48.1351239],[20.1701252,48.1156606],[20.2029257,48.1077251],[20.2043834,48.0966688],[20.2173645,48.0927347],[20.2491025,48.0889853],[20.2600774,48.096865],[20.2748091,48.0951866],[20.2840966,48.103466],[20.2779705,48.1084817],[20.2874141,48.1232282],[20.3181202,48.12366],[20.3257509,48.1098701],[20.3588214,48.0916074],[20.362195,48.1125075],[20.37569,48.1291098],[20.3952244,48.1368793],[20.3864496,48.1495466],[20.4377273,48.1527517],[20.4536075,48.1510372],[20.4746908,48.1313675],[20.4844117,48.1125902],[20.4816773,48.0958742],[20.5024844,48.0674398],[20.4783827,48.0586041],[20.4936157,48.0423798],[20.4904933,48.0238019],[20.4811884,47.9949834],[20.4515512,47.9682991],[20.4984097,47.9410847],[20.5108845,47.9413064],[20.5178987,47.9286562],[20.4938686,47.9202011],[20.4974422,47.9060641],[20.468129,47.9106155],[20.4479952,47.8990544],[20.4626317,47.8748937],[20.50306,47.8633503],[20.5131129,47.8384714],[20.5018489,47.8195746],[20.5074962,47.7989404],[20.5310699,47.77351],[20.5961824,47.7402935],[20.569011,47.7181868],[20.577847,47.7115937],[20.6413981,47.6863656],[20.6729785,47.6863105],[20.6771703,47.694247],[20.6876532,47.6868596],[20.7086354,47.690372],[20.77175,47.6544101],[20.7586793,47.6413593],[20.7328157,47.6429554],[20.7154121,47.6345483],[20.7164777,47.6070464],[20.6958068,47.5978942],[20.7092657,47.5871025],[20.7018088,47.5746832],[20.6638305,47.5705874],[20.6647396,47.5521792],[20.574545,47.5134818],[20.521484,47.5007565],[20.506833,47.4704792],[20.4694819,47.4649098],[20.4511285,47.4533736],[20.4387246,47.4319228],[20.3924132,47.420454],[20.3815075,47.4242873],[20.3803705,47.4461829],[20.336853,47.4425798],[20.2874206,47.4866872],[20.3033951,47.5181498],[20.2933819,47.5339806],[20.2862024,47.5432663],[20.2552443,47.5474025],[20.2603215,47.5558133],[20.2311555,47.5617278],[20.2261369,47.5798252],[20.214232,47.5834672],[20.2086437,47.6076595],[20.1745153,47.6073784],[20.1029847,47.58975],[20.1318103,47.5651827],[20.1123158,47.5533075],[20.045098,47.5701617],[20.0052841,47.5941688],[20.0190928,47.6155965],[20.0069224,47.6283705],[20.002991,47.6611334],[19.9934127,47.6731864],[19.9721308,47.6767737],[19.9618403,47.6673209],[19.9114121,47.6544481],[19.8766224,47.6681287],[19.8720156,47.6308774],[19.8450547,47.6211986],[19.8185615,47.5939211],[19.7583725,47.6210568],[19.7022184,47.6065723],[19.7047698,47.5858114],[19.6663277,47.5885507],[19.6536496,47.5985083],[19.656519,47.6164968],[19.6369362,47.6370501],[19.6444036,47.6460791],[19.6143121,47.655163],[19.5914358,47.6879125],[19.6012302,47.6933407],[19.5948925,47.697143],[19.6067257,47.711911],[19.5709386,47.7349031]]]}},{"type":"Feature","properties":{"name":"Jász-Nagykun-Szolnok"},"geometry":{"type":"Polygon","coordinates":[[[19.6526744,47.5478376],[19.6585719,47.5591693],[19.6510411,47.5618948],[19.6641959,47.5868289],[19.6791947,47.5917446],[19.7047698,47.5858114],[19.7022184,47.6065723],[19.7129736,47.6114589],[19.7583725,47.6210568],[19.8185615,47.5939211],[19.8450547,47.6211986],[19.8720156,47.6308774],[19.8766224,47.6681287],[19.9114121,47.6544481],[19.9618403,47.6673209],[19.9707164,47.6766661],[19.9896728,47.6740264],[19.999891,47.6675432],[20.0069224,47.6283705],[20.0190928,47.6155965],[20.0052841,47.5941688],[20.019091,47.580968],[20.1123158,47.5533075],[20.1318103,47.5651827],[20.1029847,47.58975],[20.1745153,47.6073784],[20.2086437,47.6076595],[20.214232,47.5834672],[20.2261369,47.5798252],[20.2311555,47.5617278],[20.2603215,47.5558133],[20.2552443,47.5474025],[20.2862024,47.5432663],[20.2933819,47.5339806],[20.3033951,47.5181498],[20.2874206,47.4866872],[20.2985064,47.4755626],[20.336853,47.4425798],[20.3803705,47.4461829],[20.3815075,47.4242873],[20.4140169,47.422306],[20.4479818,47.4389515],[20.4511285,47.4533736],[20.4694819,47.4649098],[20.506833,47.4704792],[20.521484,47.5007565],[20.574545,47.5134818],[20.6647396,47.5521792],[20.6638305,47.5705874],[20.7051699,47.5769334],[20.7092657,47.5871025],[20.6958068,47.5978942],[20.7164777,47.6070464],[20.7154121,47.6345483],[20.7328157,47.6429554],[20.7586793,47.6413593],[20.77175,47.6544101],[20.7648455,47.667461],[20.7997352,47.682551],[20.8305676,47.6689878],[20.8232036,47.6409895],[20.8423572,47.5967082],[20.882928,47.5820133],[20.9456249,47.5960797],[20.974098,47.5855386],[20.9944929,47.5670592],[20.9964867,47.5393829],[20.9832146,47.519495],[20.9934412,47.4956854],[21.0079151,47.4906658],[20.9920224,47.4736966],[21.0305648,47.3562291],[21.0170137,47.2493901],[20.9876348,47.2259335],[20.9674911,47.22551],[20.9448542,47.1862794],[20.8941643,47.1745354],[20.8474773,47.1482375],[20.8683125,47.120867],[20.8447409,47.1166646],[20.8439586,47.0934422],[20.852288,47.0925485],[20.8434718,47.0789808],[20.861325,47.063083],[20.8437047,47.069455],[20.8405883,47.0595975],[20.8028085,47.046093],[20.8114543,47.0379629],[20.8064049,47.0368939],[20.7595723,47.035702],[20.7562357,47.0532707],[20.7275013,47.0434124],[20.7230283,47.0304771],[20.7081004,47.035134],[20.7020348,47.012553],[20.7183487,47.0001281],[20.7096396,46.9781533],[20.7203544,46.9753395],[20.7136118,46.9731568],[20.7265448,46.9596329],[20.7042656,46.9588179],[20.7258643,46.9558366],[20.7277674,46.9455242],[20.6931656,46.9107678],[20.6728627,46.9139481],[20.6413386,46.9002966],[20.6068335,46.9175359],[20.5861152,46.912102],[20.5533871,46.9169359],[20.5376938,46.9001677],[20.4965123,46.8904703],[20.4602842,46.9030689],[20.4075039,46.8595327],[20.4248282,46.7991469],[20.4040302,46.7883506],[20.3523886,46.7847645],[20.3413565,46.7643296],[20.290451,46.767563],[20.2649593,46.7922117],[20.2357259,46.7989921],[20.2183782,46.7919383],[20.2198144,46.7812621],[20.1999182,46.7841308],[20.1754601,46.7546668],[20.1156694,46.7849534],[20.1045596,46.7839106],[20.1070298,46.7682738],[20.0908403,46.7623306],[20.0835483,46.7863912],[20.0664416,46.7907358],[20.0613121,46.8124882],[20.0437862,46.8244508],[20.0315102,46.8207457],[20.0406881,46.8073396],[20.033283,46.7963586],[20.0009454,46.8175783],[20.0612923,46.8410503],[20.1146012,46.8428502],[20.0858082,46.8747218],[20.1206246,46.8942028],[20.1230855,46.9059875],[20.1600579,46.9204839],[20.148775,46.9392567],[20.1260693,46.9436638],[20.108789,46.9365763],[20.1049043,46.9419529],[20.1057139,46.9545155],[20.132541,46.9611188],[20.1266914,46.9745007],[20.1391438,46.983859],[20.0945144,47.007552],[20.1126537,47.0329531],[20.0918724,47.0440919],[20.0477077,47.1250606],[20.0558343,47.1456452],[20.0989508,47.1814601],[20.0795586,47.2204027],[20.0337575,47.2427939],[19.98827,47.2530607],[20.0175947,47.3038896],[19.9920271,47.3287868],[19.9904682,47.3466309],[19.9687507,47.3643699],[19.8246123,47.4288263],[19.8037689,47.4596934],[19.7469639,47.4889348],[19.7910815,47.5324751],[19.7772497,47.5388348],[19.7678599,47.5303541],[19.7460906,47.5320441],[19.7362475,47.5388811],[19.7027093,47.5172407],[19.6526744,47.5478376]]]}},{"type":"Feature","properties":{"name":"Komárom-Esztergom"},"geometry":{"type":"Polygon","coordinates":[[[17.8708528,47.4579543],[17.8853173,47.4638154],[17.8733961,47.469787],[17.8743432,47.4777918],[17.8895108,47.478303],[17.8842255,47.488174],[17.9098535,47.4979492],[17.9113562,47.5063371],[17.8849472,47.531968],[17.8845542,47.5498629],[17.9094792,47.5413539],[17.9368946,47.5480911],[17.9051504,47.5595879],[17.9232604,47.5810914],[17.9124752,47.5851755],[17.9337681,47.6162213],[17.8952616,47.6265099],[17.8876968,47.637472],[17.9010418,47.6714986],[17.8900788,47.6831893],[17.9025804,47.7046386],[17.8947759,47.7393637],[17.9444171,47.7445751],[17.9706706,47.7568677],[18.0022686,47.7471625],[18.0354373,47.7564803],[18.0846265,47.7565393],[18.2901028,47.7311798],[18.4529767,47.7651375],[18.492465,47.7526103],[18.5660113,47.7660926],[18.6168563,47.7573469],[18.6550601,47.7600215],[18.7224485,47.7868438],[18.740174,47.813415],[18.7942329,47.8227792],[18.8983137,47.8049986],[18.9102597,47.7734113],[18.9272184,47.7650585],[18.9199445,47.7403018],[18.9419843,47.7247146],[18.9211469,47.7098468],[18.8934729,47.7208496],[18.8534453,47.7139362],[18.8557659,47.6968125],[18.8467598,47.6926083],[18.8597786,47.6781608],[18.8649454,47.6511388],[18.811952,47.6571348],[18.7803323,47.6711515],[18.7786966,47.6608673],[18.7482626,47.6611769],[18.7821786,47.6395583],[18.7204118,47.6085586],[18.7210552,47.5948529],[18.6851699,47.5753249],[18.6227478,47.5716918],[18.6171815,47.5648173],[18.5765919,47.5745558],[18.549077,47.569489],[18.5346248,47.5519129],[18.4890398,47.5547506],[18.4851646,47.5490181],[18.5023651,47.5167329],[18.5306158,47.5012521],[18.5442838,47.4822747],[18.5064886,47.4980988],[18.4930311,47.4961324],[18.4801853,47.4892159],[18.4747646,47.4705292],[18.4397027,47.4924369],[18.3995867,47.4513357],[18.3779792,47.4602533],[18.3516778,47.4420545],[18.3773852,47.4182023],[18.3426868,47.4102002],[18.3306279,47.4160116],[18.3116515,47.3990614],[18.2852501,47.4123172],[18.2777945,47.4240738],[18.2478963,47.43453],[18.2413586,47.4584748],[18.1899855,47.4767586],[18.194877,47.4516641],[18.1848788,47.4451196],[18.1719098,47.4488271],[18.1512885,47.4402958],[18.137615,47.4519888],[18.1158545,47.4445825],[18.1184415,47.4251801],[18.1050688,47.4197416],[18.1093107,47.4018774],[18.0800948,47.3742233],[18.0882212,47.3586793],[18.0536228,47.3511467],[18.0342232,47.3403173],[18.0360092,47.3346186],[17.9720626,47.3393687],[17.9632264,47.3331933],[17.9566589,47.3529334],[17.9273352,47.3617936],[17.9507148,47.369636],[17.9493962,47.3791433],[17.934063,47.388516],[17.8999741,47.3832292],[17.8762189,47.3928942],[17.8944699,47.4303957],[17.8839036,47.45161],[17.8708528,47.4579543]]]}},{"type":"Feature","properties":{"name":"Nógrád"},"geometry":{"type":"Polygon","coordinates":[[[18.928061,48.057122],[18.98161,48.053601],[19.014864,48.078179],[19.058525,48.057353],[19.084362,48.072781],[19.107402,48.065596],[19.135289,48.074146],[19.181172,48.06127],[19.212823,48.064362],[19.241368,48.053653],[19.255782,48.071556],[19.303112,48.088711],[19.369607,48.085913],[19.386597,48.091914],[19.400018,48.082304],[19.454053,48.101436],[19.451796,48.09173],[19.467354,48.083933],[19.468313,48.092037],[19.49442,48.109906],[19.492377,48.139664],[19.512822,48.154663],[19.504518,48.173443],[19.528967,48.190358],[19.526044,48.20313],[19.577502,48.216015],[19.6308264,48.2500725],[19.644524,48.239172],[19.669857,48.239212],[19.674662,48.219739],[19.691219,48.203894],[19.721125,48.201473],[19.74618,48.216512],[19.787163,48.19253],[19.798733,48.19482],[19.805283,48.183733],[19.782415,48.165039],[19.7948001,48.1535187],[19.806499,48.1541217],[19.806584,48.162061],[19.821331,48.169081],[19.845282,48.162742],[19.8552187,48.1784432],[19.860131,48.169409],[19.898745,48.166312],[19.914536,48.146863],[19.902104,48.136575],[19.900433,48.124127],[19.937383,48.131118],[19.951557,48.151548],[19.963565,48.152021],[19.974394,48.166005],[19.988706,48.162168],[20.029038,48.177685],[20.044388,48.167243],[20.0619858,48.1672793],[20.0645989,48.1554594],[20.0873089,48.1529729],[20.0933671,48.1434017],[20.0790447,48.1370595],[20.0713246,48.1211363],[20.0474949,48.123227],[20.041554,48.1065711],[19.9684584,48.0900142],[19.9727783,48.077766],[20.0183331,48.0534441],[20.0080942,48.0520087],[20.0133104,48.0242155],[20.0322979,48.0095406],[19.9965328,48.0072475],[19.9805151,47.9981971],[19.975811,47.9890255],[19.9863987,47.9802001],[19.9640899,47.9716724],[19.9683192,47.9502693],[19.9409475,47.9440413],[19.9332198,47.9254607],[19.9144244,47.9160652],[19.8951774,47.9169682],[19.8806815,47.9303968],[19.8092025,47.9228954],[19.8117367,47.9027013],[19.8303341,47.8961048],[19.8411879,47.901319],[19.8551442,47.8909889],[19.8362043,47.8743583],[19.7772499,47.9048217],[19.7681544,47.9029914],[19.7595224,47.8912638],[19.7667438,47.8843421],[19.7642668,47.8694826],[19.7249094,47.8407898],[19.7156652,47.8235213],[19.720209,47.8180075],[19.6865055,47.8202607],[19.684101,47.8113083],[19.6667602,47.8103208],[19.6638671,47.8001646],[19.6532933,47.8134134],[19.6325441,47.805837],[19.6456007,47.7803237],[19.6312534,47.7553139],[19.612077,47.7622227],[19.5709386,47.7349031],[19.5411357,47.7464039],[19.5184105,47.7232911],[19.4910224,47.7128385],[19.4895607,47.7072035],[19.5087962,47.7040636],[19.5089451,47.6959454],[19.4773253,47.6877825],[19.4656149,47.7118175],[19.4524332,47.7151821],[19.433885,47.7386012],[19.4446706,47.7682294],[19.4149654,47.7718704],[19.4271444,47.7966311],[19.4461819,47.802244],[19.4253546,47.8165797],[19.3554043,47.8186005],[19.3245384,47.8325678],[19.2307439,47.8251908],[19.2079771,47.8418869],[19.1802279,47.8490392],[19.108631,47.8506878],[19.0861329,47.8381701],[19.0649411,47.8588077],[19.0478266,47.8612623],[19.0457939,47.8781856],[19.0033392,47.8979744],[18.9432397,47.9440015],[18.9489069,47.9489439],[18.9409537,47.9542819],[18.9942002,47.9794437],[18.9890993,47.9878025],[19.0049697,47.9916478],[19.0072161,48.0102792],[19.0004061,48.0099005],[19.0054965,48.0170992],[18.9902822,48.0293173],[18.9587918,48.0268362],[18.928061,48.057122]]]}},{"type":"Feature","properties":{"name":"Pest"},"geometry":{"type":"Polygon","coordinates":[[[18.6885359,47.577244],[18.7210552,47.5948529],[18.7204118,47.6085586],[18.7821786,47.6395583],[18.7482626,47.6611769],[18.7786966,47.6608673],[18.7803323,47.6711515],[18.811952,47.6571348],[18.8649454,47.6511388],[18.8597786,47.6781608],[18.8467598,47.6926083],[18.8557659,47.6968125],[18.8534453,47.7139362],[18.8934729,47.7208496],[18.9211469,47.7098468],[18.9419843,47.7247146],[18.9199445,47.7403018],[18.9272184,47.7650585],[18.9102597,47.7734113],[18.9022756,47.8023391],[18.8508131,47.8144457],[18.855938,47.827274],[18.828014,47.834291],[18.821745,47.850504],[18.7637763,47.8713527],[18.756801,47.89757],[18.762917,47.903926],[18.75776,47.919722],[18.774048,47.932347],[18.776746,47.955092],[18.754881,47.975553],[18.767751,47.984878],[18.80076,47.985341],[18.815986,47.99368],[18.821275,48.006299],[18.815567,48.021423],[18.826553,48.031355],[18.821997,48.042571],[18.845585,48.052572],[18.8749365,48.0470707],[18.886674,48.058682],[18.908982,48.051139],[18.928061,48.057122],[18.9587918,48.0268362],[18.9902822,48.0293173],[19.0054965,48.0170992],[19.0004061,48.0099005],[19.0072161,48.0102792],[19.0049697,47.9916478],[18.9890993,47.9878025],[18.9942002,47.9794437],[18.9409537,47.9542819],[18.9489069,47.9489439],[18.9432397,47.9440015],[19.0033392,47.8979744],[19.0457939,47.8781856],[19.047508,47.8615709],[19.0649411,47.8588077],[19.0861329,47.8381701],[19.108631,47.8506878],[19.1802279,47.8490392],[19.2079771,47.8418869],[19.2307439,47.8251908],[19.3245384,47.8325678],[19.3554043,47.8186005],[19.4253546,47.8165797],[19.4461819,47.802244],[19.4271444,47.7966311],[19.4149654,47.7718704],[19.4446706,47.7682294],[19.433885,47.7386012],[19.4524332,47.7151821],[19.4656149,47.7118175],[19.4772471,47.6877951],[19.5089451,47.6959454],[19.5087962,47.7040636],[19.4895607,47.7072035],[19.4910224,47.7128385],[19.5184105,47.7232911],[19.5411357,47.7464039],[19.6067257,47.711911],[19.5948925,47.697143],[19.6012302,47.6933407],[19.5914358,47.6879125],[19.6143121,47.655163],[19.6444036,47.6460791],[19.6369362,47.6370501],[19.656519,47.6164968],[19.6536496,47.5985083],[19.6663277,47.5885507],[19.6510411,47.5618948],[19.6585719,47.5591693],[19.6526744,47.5478376],[19.7027093,47.5172407],[19.7362475,47.5388811],[19.7460906,47.5320441],[19.7678599,47.5303541],[19.7772497,47.5388348],[19.7910815,47.5324751],[19.7469639,47.4889348],[19.8037689,47.4596934],[19.8246123,47.4288263],[19.9610125,47.3692779],[19.9904682,47.3466309],[19.9920271,47.3287868],[20.0175947,47.3038896],[19.98827,47.2530607],[20.0337575,47.2427939],[20.0795586,47.2204027],[20.0989508,47.1814601],[20.0558343,47.1456452],[20.0477077,47.1250606],[20.0918724,47.0440919],[20.1126537,47.0329531],[20.0945144,47.007552],[20.0696923,47.0195845],[19.9997163,46.9984834],[19.98275,46.9830106],[19.9835103,46.962817],[19.9269783,46.9750742],[19.8767075,46.9979185],[19.8402963,46.9444837],[19.8020895,46.9554035],[19.7797496,46.9486941],[19.689668,46.9941719],[19.6367317,47.0382516],[19.6204906,47.0825059],[19.587166,47.120925],[19.5614116,47.1073235],[19.5060277,47.1189198],[19.474447,47.0550055],[19.4292328,47.0636332],[19.374373,47.0328275],[19.3331266,47.0268459],[19.3191342,47.0127927],[19.2953042,47.036076],[19.3143943,47.0668788],[19.3477932,47.0932229],[19.3119484,47.1204069],[19.2689813,47.1343751],[19.2371666,47.1310051],[19.2091433,47.0891586],[19.2024805,47.0975471],[19.1640075,47.0956902],[19.1321896,47.0717274],[19.0981846,47.0629905],[19.0953845,47.045471],[19.0697588,47.034441],[19.0201764,47.0542416],[18.95665,47.0641056],[18.9773033,47.0412767],[18.9666614,47.0305866],[18.898058,47.0761015],[18.8730272,47.1437093],[18.881508,47.1961136],[18.9101424,47.231247],[18.9190647,47.2744845],[18.8801467,47.2772862],[18.8733336,47.2866565],[18.8811361,47.3013987],[18.8583169,47.3054043],[18.867622,47.3145272],[18.8636607,47.3191365],[18.81149,47.3537338],[18.757147,47.4033223],[18.7895284,47.4256639],[18.7855833,47.45686],[18.7515427,47.49242],[18.722435,47.4963756],[18.6947587,47.5327779],[18.6921315,47.5486267],[18.7003701,47.5613126],[18.6885359,47.577244]],[[18.9251057,47.5441443],[18.9357518,47.5433397],[18.935328,47.5226433],[18.9268967,47.5222438],[18.9447868,47.5175182],[18.9338566,47.5070997],[18.9455163,47.4993342],[18.9359282,47.4915402],[18.9470626,47.4824417],[18.9636819,47.4822826],[18.9826683,47.4607778],[18.9698967,47.4510976],[18.9785151,47.4472141],[18.9762365,47.4300716],[18.9570475,47.418595],[18.9624741,47.3993087],[18.9513396,47.3925554],[18.9623767,47.3726234],[18.9947161,47.3869779],[19.0439653,47.3850196],[19.0836191,47.4048849],[19.1052232,47.3869689],[19.0981731,47.378676],[19.1404776,47.3496899],[19.179723,47.3610728],[19.2058415,47.3954749],[19.2263926,47.4074575],[19.2174223,47.4127942],[19.2316902,47.4241808],[19.2469876,47.4192067],[19.2657695,47.4382332],[19.2808994,47.4363091],[19.3012638,47.4571781],[19.3349258,47.4632105],[19.314189,47.4930236],[19.3183484,47.5153487],[19.2635991,47.5083478],[19.2449305,47.5369425],[19.2211482,47.5327422],[19.2094161,47.5403195],[19.190302,47.5389938],[19.1611232,47.5595248],[19.1743919,47.5642885],[19.145354,47.5781449],[19.1538362,47.5849905],[19.1381081,47.5998434],[19.1279713,47.5979524],[19.0992826,47.6131468],[19.0745731,47.5891295],[19.0767223,47.6068533],[19.0381747,47.609626],[19.0252812,47.6045889],[19.0344669,47.5869376],[18.9830234,47.5890291],[18.9772115,47.5739078],[18.9425905,47.578906],[18.9288432,47.5724407],[18.9408943,47.552074],[18.9251057,47.5441443]]]}},{"type":"Feature","properties":{"name":"Somogy"},"geometry":{"type":"Polygon","coordinates":[[[16.8763354,46.3210289],[16.8856341,46.3241119],[16.8970923,46.3125258],[16.9359413,46.3170666],[16.9391484,46.2912226],[16.9781671,46.3052816],[16.9854725,46.3157012],[17.0139136,46.3047848],[17.0409518,46.3167017],[17.0371864,46.3292018],[17.058237,46.3398604],[17.0550086,46.3679942],[17.0467148,46.3689883],[17.0432762,46.3875952],[17.02973,46.3964927],[17.0372642,46.4160576],[17.0543147,46.4167377],[17.0546235,46.408361],[17.0686224,46.4017499],[17.0874542,46.4205603],[17.1279432,46.4058235],[17.1394296,46.4079214],[17.1413382,46.4273789],[17.1883001,46.4292358],[17.1952666,46.4656077],[17.1901704,46.4857101],[17.2012331,46.4847504],[17.2267858,46.5118287],[17.2151427,46.6106868],[17.2214961,46.6716935],[17.2568178,46.6872639],[17.2690185,46.7338671],[17.3614537,46.7316558],[17.3974458,46.7483692],[17.4918651,46.7530279],[17.6673184,46.8119775],[17.7296165,46.8404031],[17.7884767,46.8535793],[17.85411,46.8843673],[17.8890579,46.8798677],[17.9102737,46.894094],[17.9075575,46.9159057],[18.0078022,46.9440363],[18.0666401,46.9697345],[18.1672729,46.997306],[18.1894387,46.9897193],[18.2052486,46.9716309],[18.1742278,46.9462089],[18.1937645,46.9280559],[18.2132863,46.8874539],[18.1892871,46.8732947],[18.2062088,46.8673624],[18.1975501,46.8644914],[18.2051607,46.8390301],[18.1983638,46.8130837],[18.210779,46.778241],[18.1663932,46.7671415],[18.1722903,46.7451028],[18.1412342,46.7475249],[18.137551,46.7360721],[18.1143802,46.7305477],[18.1303296,46.7044029],[18.1413236,46.7090592],[18.1469723,46.7026331],[18.1381499,46.70066],[18.1410306,46.6938277],[18.1262234,46.6945782],[18.1313485,46.6773743],[18.1126527,46.6707448],[18.1018162,46.6577068],[18.1080465,46.6493784],[18.0893835,46.6416109],[18.0884803,46.6301736],[18.0709538,46.6212659],[18.0874222,46.5966565],[18.084907,46.5829245],[18.0632881,46.5568422],[18.0501031,46.5536774],[18.037816,46.5611864],[18.0387698,46.5394882],[18.0327511,46.5371472],[18.0382634,46.5074938],[18.0308205,46.5015291],[18.068252,46.4373165],[18.0668227,46.4231993],[18.001736,46.4005312],[18.0141719,46.3831227],[18.0525098,46.3929875],[18.065123,46.3652983],[18.0821463,46.3665856],[18.0877582,46.3293135],[18.0753163,46.3181617],[18.0755075,46.3075023],[18.0483048,46.2927916],[18.0245214,46.3013429],[18.0075712,46.2973759],[18.0018453,46.3091309],[17.9486602,46.3036729],[17.9341946,46.2856301],[17.9377033,46.2753815],[17.927643,46.2570029],[17.9345718,46.2406953],[17.9195345,46.2245539],[17.8778499,46.2241288],[17.8709063,46.2152981],[17.8609172,46.220524],[17.8370757,46.2073216],[17.8150516,46.2108886],[17.812605,46.2222857],[17.802801,46.2191343],[17.7943945,46.2266592],[17.7692111,46.2008566],[17.7498975,46.2059665],[17.7283829,46.2335237],[17.7154645,46.2234662],[17.7279049,46.2083763],[17.7029945,46.1951389],[17.7055283,46.1814577],[17.6868929,46.1595262],[17.6802401,46.1190737],[17.6875886,46.1096418],[17.6653412,46.1017523],[17.6809292,46.0916594],[17.6769985,46.0737099],[17.669914,46.0724827],[17.6701645,46.0625866],[17.6554457,46.0608803],[17.6561737,46.0536493],[17.6285099,46.0449287],[17.6384795,46.0187722],[17.6573502,46.0075836],[17.6533943,45.9911579],[17.6250717,45.9881369],[17.6450219,45.9346902],[17.6596967,45.9367759],[17.6538939,45.9504149],[17.6593189,45.9516228],[17.6694031,45.941464],[17.6891053,45.9394235],[17.6760915,45.9362154],[17.6834731,45.9245036],[17.7246072,45.9158543],[17.7204985,45.9055226],[17.7343236,45.8976898],[17.7262615,45.8926424],[17.7347724,45.8790319],[17.7280247,45.8648638],[17.7034087,45.8683766],[17.6933035,45.858356],[17.6891118,45.8735345],[17.6701952,45.8668322],[17.6662738,45.8496454],[17.6516805,45.8482404],[17.6267268,45.8987023],[17.5666766,45.9367931],[17.5287878,45.9338105],[17.436028,45.9503448],[17.4274266,45.9422768],[17.4373562,45.9310457],[17.4262436,45.9271491],[17.4122756,45.930244],[17.4109317,45.9401265],[17.3901466,45.9316004],[17.3814229,45.9481064],[17.3455888,45.9433548],[17.3432236,45.9601625],[17.3526575,45.9525147],[17.391072,45.9601366],[17.3594082,45.9638386],[17.3757281,45.9701381],[17.3672167,45.9752803],[17.3738001,45.9891815],[17.3640411,45.9916469],[17.3529272,45.9746905],[17.3399546,45.9946529],[17.3317744,45.9954268],[17.3276132,45.9897619],[17.3373289,45.9827816],[17.3310799,45.9713016],[17.3095419,45.9682263],[17.3225472,45.989404],[17.2990418,45.9832328],[17.294269,45.9905427],[17.3044351,46.0025015],[17.2816981,46.0007583],[17.2577586,46.0120596],[17.2930552,46.0232699],[17.2946607,46.0311021],[17.2545698,46.0299616],[17.2576742,46.0462422],[17.2699933,46.0573464],[17.2313841,46.0604126],[17.2323706,46.0658819],[17.2438043,46.0612638],[17.2517595,46.0644233],[17.2408673,46.0656431],[17.2321635,46.0800947],[17.2015926,46.0774593],[17.2191294,46.0826695],[17.233439,46.0977327],[17.2094839,46.0993363],[17.2184576,46.1090985],[17.2147231,46.1142818],[17.1779472,46.1071472],[17.1818917,46.1191209],[17.1743406,46.1291767],[17.1860657,46.1328286],[17.1807063,46.1505574],[17.1560898,46.1586582],[17.1586235,46.1697547],[17.1254316,46.168387],[17.1231021,46.1788735],[17.1109645,46.1760914],[17.0901493,46.1895089],[17.0817995,46.1857609],[17.0662984,46.2020935],[17.0059407,46.2227947],[16.973071,46.2247967],[16.9731734,46.2427226],[16.9525101,46.2400786],[16.8862599,46.2806574],[16.8763354,46.3210289]]]}},{"type":"Feature","properties":{"name":"Szabolcs-Szatmár-Bereg"},"geometry":{"type":"Polygon","coordinates":[[[21.0787586,48.0020777],[21.1314101,48.0482626],[21.1499643,48.039809],[21.1695839,48.041933],[21.1699703,48.0267303],[21.2129747,48.0232733],[21.229043,48.0275415],[21.2238709,48.039824],[21.2588014,48.0601099],[21.2658434,48.0386541],[21.2947899,48.0384773],[21.2932463,48.0289864],[21.3166507,48.0319604],[21.3298381,48.0218038],[21.3525075,48.0339216],[21.379935,48.0249951],[21.3752358,48.034232],[21.4121026,48.0334893],[21.4089213,48.0510711],[21.4324297,48.0433585],[21.4375462,48.0683891],[21.4621127,48.0713105],[21.436323,48.0790757],[21.431629,48.0883146],[21.4510233,48.0898194],[21.4233728,48.1067625],[21.4138019,48.1216086],[21.4303498,48.1343804],[21.4239527,48.1589004],[21.4436806,48.1775667],[21.4601865,48.1776049],[21.4710704,48.1667184],[21.4791209,48.1806399],[21.5054917,48.17247],[21.5051775,48.1778073],[21.5251901,48.1796717],[21.5157224,48.1840623],[21.5352781,48.1975173],[21.5700182,48.2000414],[21.5778973,48.2097701],[21.6277954,48.1934426],[21.7109336,48.1931016],[21.7146224,48.1983486],[21.7214087,48.1863906],[21.7314357,48.1930167],[21.7235308,48.1943387],[21.7240182,48.2038491],[21.7333547,48.1971631],[21.7542326,48.2042937],[21.7547012,48.1913331],[21.7725093,48.1943471],[21.7670418,48.1986651],[21.7714604,48.2069433],[21.7837829,48.2028429],[21.7973097,48.2109066],[21.7972964,48.2215693],[21.8152276,48.2264835],[21.8130482,48.2391006],[21.823499,48.2319968],[21.8275666,48.2440875],[21.8418427,48.2231847],[21.8398893,48.2293251],[21.8507431,48.2298279],[21.8501547,48.2401202],[21.874557,48.2380139],[21.8973005,48.2473621],[21.9202499,48.2395659],[21.9428169,48.2557662],[21.938645,48.2627259],[21.9622751,48.2670928],[22.0144285,48.3114904],[22.026464,48.3123255],[22.023573,48.301736],[22.0444888,48.308059],[22.0621141,48.296937],[22.0686937,48.3020991],[22.0653214,48.3128555],[22.0863245,48.3107871],[22.0844292,48.3272156],[22.0955506,48.3318801],[22.0951054,48.3242725],[22.1025211,48.3240792],[22.0950955,48.3337952],[22.1115098,48.3409863],[22.1047269,48.3462063],[22.1252354,48.3509117],[22.1082029,48.3623992],[22.1274257,48.3588516],[22.1177369,48.3690065],[22.122183,48.379374],[22.136426,48.381117],[22.131056,48.391233],[22.152768,48.396241],[22.1582159,48.4106229],[22.2100425,48.4257548],[22.2344077,48.4107232],[22.2653302,48.4098034],[22.255758,48.3926239],[22.2398761,48.3870056],[22.2672826,48.3612219],[22.3178163,48.3545435],[22.3202242,48.3387553],[22.3126578,48.3264085],[22.3370319,48.3075064],[22.3386764,48.2790289],[22.3603068,48.2653966],[22.3691105,48.245103],[22.3847548,48.2339633],[22.4006408,48.249198],[22.4329463,48.2466155],[22.4328385,48.2525166],[22.456386,48.242311],[22.4898726,48.253442],[22.5014498,48.2492092],[22.4972202,48.2395546],[22.5161491,48.2379651],[22.5136141,48.2258558],[22.5311089,48.2094282],[22.5711443,48.1961428],[22.5613894,48.1815208],[22.5750223,48.159262],[22.5982449,48.144756],[22.5881388,48.1395849],[22.6001107,48.1167948],[22.5902764,48.1073415],[22.6729488,48.0917969],[22.7347193,48.1195795],[22.7564943,48.1203212],[22.77037,48.1089087],[22.7778125,48.1120303],[22.7716327,48.1216856],[22.7902257,48.116629],[22.8027897,48.1219346],[22.8050756,48.106174],[22.8153188,48.1181189],[22.8268352,48.1157082],[22.8364482,48.0803814],[22.8483959,48.0832212],[22.8611859,48.0742899],[22.8610832,48.0575529],[22.8819934,48.0532824],[22.880644,48.0363044],[22.865461,48.0219019],[22.8655662,48.0120287],[22.8362516,47.9904303],[22.8405514,47.9810622],[22.8728184,47.9749146],[22.8794951,47.9634994],[22.8929953,47.9667904],[22.8964575,47.9529334],[22.8870438,47.9516531],[22.8473299,47.907758],[22.825908,47.9075288],[22.7928135,47.8908586],[22.7580507,47.89341],[22.7686658,47.8779258],[22.7627907,47.8651072],[22.7734979,47.863705],[22.77775,47.8422508],[22.7555146,47.8341936],[22.7136345,47.8360928],[22.6801939,47.7877527],[22.6115515,47.7719876],[22.5495259,47.7726589],[22.4812121,47.8108887],[22.4479445,47.8031152],[22.4257553,47.7501105],[22.4302174,47.7409546],[22.3567187,47.749057],[22.3177715,47.7660887],[22.3176236,47.7433657],[22.2851369,47.7292758],[22.2645396,47.7311613],[22.2588867,47.6980839],[22.2261906,47.6879898],[22.2218452,47.6620856],[22.203356,47.6548534],[22.18982,47.6116258],[22.1704398,47.5916361],[22.1183526,47.6039879],[22.104142,47.6310366],[22.1045727,47.6580773],[22.0754598,47.6718081],[22.065219,47.6701865],[22.0446614,47.6360409],[22.0217944,47.6202422],[22.0032807,47.6416256],[22.0113281,47.6646689],[21.9809612,47.6757615],[21.9870153,47.7042153],[21.96019,47.7090539],[21.9242745,47.7332054],[21.8877481,47.7261012],[21.8833954,47.6972819],[21.8361819,47.6690597],[21.8025973,47.6740584],[21.7959068,47.6852618],[21.7637956,47.6871674],[21.7705386,47.6972945],[21.7665162,47.7069117],[21.7191053,47.706877],[21.7001267,47.733227],[21.6777603,47.7261095],[21.6360988,47.7293443],[21.6268082,47.7466731],[21.5957876,47.7717666],[21.541329,47.7904654],[21.5561195,47.8750955],[21.5658285,47.888583],[21.5545505,47.8895837],[21.5536148,47.9059558],[21.5655327,47.9297227],[21.5162208,47.9414437],[21.4994341,47.9341796],[21.4967503,47.925477],[21.4311794,47.9287452],[21.4138268,47.9207285],[21.320399,47.9199288],[21.2709473,47.9048785],[21.2616295,47.9118779],[21.2615892,47.9244644],[21.1943852,47.95773],[21.151596,47.9649709],[21.146025,47.9532673],[21.1344992,47.9614905],[21.1275101,47.9574131],[21.1019386,47.9711047],[21.1046184,47.9814426],[21.0787586,48.0020777]]]}},{"type":"Feature","properties":{"name":"Tolna"},"geometry":{"type":"Polygon","coordinates":[[[18.001736,46.4005312],[18.0668227,46.4231993],[18.068252,46.4373165],[18.0308205,46.5015291],[18.0382634,46.5074938],[18.0327511,46.5371472],[18.0387698,46.5394882],[18.037816,46.5611864],[18.0501031,46.5536774],[18.0632881,46.5568422],[18.084907,46.5829245],[18.0874222,46.5966565],[18.0709538,46.6212659],[18.0884803,46.6301736],[18.0893835,46.6416109],[18.1080465,46.6493784],[18.1018162,46.6577068],[18.1126527,46.6707448],[18.1313485,46.6773743],[18.1262234,46.6945782],[18.1410306,46.6938277],[18.1381499,46.70066],[18.1469723,46.7026331],[18.1413236,46.7090592],[18.1303296,46.7044029],[18.1143802,46.7305477],[18.137551,46.7360721],[18.1412342,46.7475249],[18.1722903,46.7451028],[18.1663932,46.7671415],[18.1746189,46.7721573],[18.2520187,46.7845373],[18.3035231,46.8174234],[18.310291,46.8132471],[18.3093431,46.7982686],[18.3200552,46.7905665],[18.3652352,46.7745996],[18.3822158,46.7910753],[18.3856578,46.7819595],[18.3955938,46.7854443],[18.3968879,46.7702169],[18.4035397,46.7698767],[18.4092557,46.803421],[18.4221477,46.7893906],[18.4183913,46.7798656],[18.4268337,46.7680978],[18.4192576,46.7524663],[18.4692702,46.7386196],[18.4648064,46.741262],[18.4786211,46.7483734],[18.5129861,46.7457023],[18.5039157,46.7639342],[18.5568954,46.7838124],[18.5726902,46.7583787],[18.6176353,46.7449825],[18.6172179,46.7316586],[18.6305421,46.7244744],[18.6200555,46.7206237],[18.6317741,46.708482],[18.6251641,46.7046522],[18.6318211,46.7023896],[18.6285861,46.6920954],[18.6369358,46.6875522],[18.6816551,46.6969884],[18.7070266,46.7164001],[18.7274491,46.7213507],[18.7312906,46.7259261],[18.712842,46.7552244],[18.7493397,46.7682666],[18.7972832,46.7697344],[18.7928255,46.7857131],[18.8354184,46.804696],[18.8719223,46.8333917],[18.875439,46.838003],[18.8605953,46.8496769],[18.9173346,46.8594598],[18.9250892,46.8571724],[18.9265598,46.8177068],[18.9537711,46.8009796],[18.956568,46.7853634],[18.9710061,46.7644315],[18.9782111,46.7651984],[18.9865606,46.7347408],[19.0059598,46.7088548],[19.0037573,46.691717],[18.9678491,46.6543804],[18.917569,46.6375752],[18.8827422,46.636774],[18.8612622,46.6142736],[18.8640852,46.5959945],[18.8956714,46.5598702],[18.8963422,46.5191201],[18.9223628,46.4749795],[18.920224,46.4498448],[18.8889369,46.4113477],[18.8851219,46.3957299],[18.8979458,46.338244],[18.9194382,46.3154252],[18.9216629,46.3009558],[18.9113282,46.2609557],[18.8921214,46.2597906],[18.8673828,46.270036],[18.8624591,46.264698],[18.8751695,46.2380614],[18.8669641,46.2319561],[18.8537772,46.236124],[18.8226149,46.2086473],[18.8330619,46.2010506],[18.8719242,46.2224442],[18.865947,46.2075849],[18.87093,46.193121],[18.854476,46.1927161],[18.8440962,46.1835562],[18.8398606,46.1454696],[18.8109555,46.1145666],[18.8191952,46.1088755],[18.7797778,46.1087888],[18.7753746,46.1144863],[18.7469298,46.1098463],[18.6936628,46.1348233],[18.6874731,46.1248506],[18.6788408,46.1397277],[18.6132569,46.1905205],[18.5930477,46.1816832],[18.5698724,46.1994805],[18.5685666,46.2230889],[18.552146,46.2192062],[18.5328592,46.2278774],[18.5284166,46.2339558],[18.5387456,46.2439009],[18.5423099,46.2736173],[18.5312722,46.2792818],[18.5302745,46.2686168],[18.5187211,46.2712284],[18.5188514,46.2841408],[18.4788801,46.3011195],[18.4802976,46.2698951],[18.4606262,46.2617992],[18.4662019,46.2534484],[18.4442435,46.2533331],[18.4443451,46.2441978],[18.3815872,46.2156624],[18.3639837,46.2197469],[18.361672,46.2288749],[18.4037453,46.2435891],[18.4220177,46.2772044],[18.4147123,46.2912579],[18.3982867,46.2869747],[18.3756847,46.2936974],[18.3730545,46.3283349],[18.3894444,46.3364271],[18.3865304,46.3501202],[18.3512095,46.3601906],[18.3416663,46.37536],[18.3457367,46.4005186],[18.3141349,46.4174558],[18.2670135,46.4015273],[18.2438065,46.4078418],[18.1856102,46.3978927],[18.1889128,46.3636417],[18.202775,46.356513],[18.2009195,46.3319893],[18.1804575,46.3328211],[18.1643217,46.3196556],[18.153771,46.3264278],[18.1528215,46.3172841],[18.1143223,46.3188752],[18.1153289,46.292603],[18.1323691,46.291602],[18.1226665,46.28124],[18.101425,46.302392],[18.0789568,46.2991518],[18.0763417,46.291896],[18.0531924,46.2958844],[18.0749757,46.3067353],[18.0753163,46.3181617],[18.0877582,46.3293135],[18.0821463,46.3665856],[18.065123,46.3652983],[18.0525098,46.3929875],[18.0141719,46.3831227],[18.001736,46.4005312]]]}},{"type":"Feature","properties":{"name":"Vas"},"geometry":{"type":"Polygon","coordinates":[[[16.1138866,46.8690592],[16.1331628,46.8757566],[16.1630109,46.9048724],[16.1792429,46.9066531],[16.1999041,46.9417955],[16.2220532,46.9355965],[16.2456579,46.9467296],[16.2427752,46.9559942],[16.2494512,46.9613101],[16.2764371,46.9626383],[16.2757909,46.9840629],[16.2900942,47.0139621],[16.3033732,46.9982764],[16.3224695,47.002564],[16.3417487,46.996164],[16.3498297,47.0103972],[16.3728621,46.9984005],[16.412623,47.0047414],[16.4323446,46.9926676],[16.4454751,46.9932088],[16.4515012,47.00429],[16.4792132,46.99382],[16.5123446,47.0015764],[16.4636468,47.0322506],[16.4477922,47.0226697],[16.4388931,47.0297151],[16.4450733,47.0387319],[16.5205761,47.0561924],[16.5100747,47.0662761],[16.4729121,47.0735893],[16.4747326,47.0853184],[16.4633499,47.0949728],[16.4746543,47.1051616],[16.484766,47.1026133],[16.4828773,47.1087599],[16.500723,47.1102011],[16.4998813,47.1234162],[16.5293271,47.1272382],[16.5167749,47.1493285],[16.4542992,47.1423097],[16.4490656,47.1518814],[16.4643423,47.1681951],[16.4549183,47.1873746],[16.4292721,47.1846768],[16.4194949,47.194925],[16.4189415,47.2106229],[16.4365993,47.2099457],[16.4427511,47.2337388],[16.44173,47.2486007],[16.4317869,47.2529454],[16.4671325,47.2528926],[16.479948,47.2625727],[16.4794528,47.2780034],[16.4894219,47.2802867],[16.4645412,47.3338592],[16.4337197,47.3528283],[16.4523462,47.3571154],[16.456998,47.3671675],[16.4514082,47.379679],[16.4614131,47.3837346],[16.445424,47.4067396],[16.4562397,47.4127299],[16.4853411,47.4089007],[16.4906691,47.4056979],[16.4838418,47.3979418],[16.496563,47.3962951],[16.4965697,47.3890498],[16.5169091,47.4105951],[16.5745289,47.4059595],[16.5810343,47.4192927],[16.6467065,47.4469521],[16.678075,47.419718],[16.7092032,47.4177652],[16.7157568,47.4091376],[16.7229047,47.4123263],[16.7187669,47.4180521],[16.7549957,47.4358284],[16.8040669,47.4436513],[16.8152867,47.435378],[16.8470743,47.4490497],[16.8663972,47.4234861],[16.8856084,47.4128299],[16.9053636,47.4238684],[16.909718,47.41328],[16.9316739,47.4114041],[16.9474759,47.3949301],[16.9603537,47.4096399],[17.0554902,47.4608375],[17.0713817,47.441305],[17.0593791,47.4319609],[17.0614672,47.4213282],[17.0461641,47.3955474],[17.0665171,47.4061838],[17.1256037,47.4167069],[17.12519,47.4281248],[17.147306,47.4372509],[17.1726191,47.4357625],[17.187751,47.4043933],[17.2089139,47.392546],[17.1891072,47.3815658],[17.2270197,47.3551319],[17.269386,47.3451263],[17.2957259,47.3288872],[17.2252448,47.3090144],[17.2132451,47.2996861],[17.2194739,47.2815043],[17.2140982,47.2749406],[17.2083116,47.2805637],[17.1997991,47.2678553],[17.2072569,47.2138875],[17.2142068,47.2067643],[17.2106748,47.1796669],[17.1945372,47.1618881],[17.2094224,47.1187019],[17.2218624,47.1139539],[17.2113502,47.1114983],[17.2157088,47.0818611],[17.1956082,47.0666777],[17.1656028,47.0799012],[17.1597545,47.0718076],[17.1449655,47.0799444],[17.076922,47.0654576],[17.0728889,47.0238692],[17.0570229,47.0312134],[17.0450151,47.0245313],[17.0377086,47.0411608],[17.0093653,47.0391341],[17.0012377,47.0332789],[17.0205099,46.9951465],[17.0169665,47.0004154],[16.9854361,46.9808048],[16.9916669,46.9633963],[16.9238605,46.9617709],[16.9178714,46.9723296],[16.8994042,46.975028],[16.8478453,46.9702397],[16.8385094,46.9807238],[16.8176437,46.9738453],[16.8175143,46.9502198],[16.7864756,46.9477057],[16.7871346,46.9321002],[16.7790548,46.9258449],[16.7376053,46.9330118],[16.7010859,46.9288379],[16.6867941,46.9376889],[16.6519499,46.9209589],[16.6311679,46.925475],[16.5916365,46.8903466],[16.58307,46.8711065],[16.567658,46.8681058],[16.556809,46.8385326],[16.5020368,46.8346552],[16.5034626,46.8045932],[16.4405305,46.7766251],[16.3948833,46.7899164],[16.3626409,46.7803976],[16.3709447,46.7695484],[16.3839111,46.7763271],[16.4068084,46.7730532],[16.3856992,46.7626513],[16.3944658,46.7422799],[16.3570587,46.7142388],[16.3467417,46.7360761],[16.3186436,46.7541449],[16.3299797,46.7779099],[16.3121888,46.7779716],[16.3109936,46.7838064],[16.3129941,46.7976766],[16.3406373,46.8051852],[16.3402987,46.8218085],[16.3508251,46.8300502],[16.3403365,46.8468907],[16.3295842,46.8446356],[16.290522,46.8728986],[16.2332296,46.8766703],[16.1560866,46.8537074],[16.126571,46.8569079],[16.1138866,46.8690592]]]}},{"type":"Feature","properties":{"name":"Veszprém"},"geometry":{"type":"Polygon","coordinates":[[[17.075305,47.0490504],[17.076922,47.0654576],[17.1449655,47.0799444],[17.1597545,47.0718076],[17.1656028,47.0799012],[17.1956082,47.0666777],[17.2157088,47.0818611],[17.2167462,47.084159],[17.211743,47.1000793],[17.2139005,47.102017],[17.2108793,47.108825],[17.2113502,47.1114983],[17.2218624,47.1139539],[17.2094224,47.1187019],[17.1945372,47.1618881],[17.2106748,47.1796669],[17.2142068,47.2067643],[17.2072569,47.2138875],[17.1997991,47.2678553],[17.2083116,47.2805637],[17.2140982,47.2749406],[17.2194739,47.2815043],[17.2132451,47.2996861],[17.2252448,47.3090144],[17.2957259,47.3288872],[17.269386,47.3451263],[17.2270197,47.3551319],[17.1891072,47.3815658],[17.2089139,47.392546],[17.1906722,47.4010124],[17.1727268,47.4327144],[17.1930395,47.4456145],[17.2012508,47.4354624],[17.2221441,47.4319892],[17.2230314,47.4388592],[17.2342052,47.4401761],[17.2935016,47.4292854],[17.3239389,47.4426938],[17.3620708,47.4436421],[17.3829284,47.4587969],[17.3910636,47.4859518],[17.4229236,47.4785669],[17.4191675,47.4673105],[17.4443696,47.4509094],[17.4449564,47.4314916],[17.482806,47.4228754],[17.5032217,47.4349526],[17.5263852,47.4687749],[17.5585965,47.4413962],[17.5818828,47.4519775],[17.5777245,47.4599203],[17.5887005,47.469202],[17.6032976,47.456334],[17.620254,47.4654069],[17.6306336,47.4552523],[17.6423569,47.4576829],[17.6413949,47.4515722],[17.6637175,47.4567946],[17.6700544,47.4721053],[17.6825557,47.4665394],[17.7031595,47.4732584],[17.7116999,47.4652328],[17.7043151,47.4496574],[17.7234243,47.448738],[17.7317796,47.4514988],[17.7225438,47.4616755],[17.7262922,47.4689516],[17.7379852,47.4728967],[17.7841033,47.4133045],[17.7871354,47.4050638],[17.7767107,47.39921],[17.7848721,47.3892781],[17.7646042,47.3840946],[17.7541014,47.3649293],[17.729066,47.3574058],[17.7182694,47.340906],[17.731093,47.3208722],[17.7558797,47.3146762],[17.7675378,47.2722962],[17.7869578,47.2792267],[17.7786102,47.3008409],[17.7808807,47.3229561],[17.8211583,47.3245331],[17.8358707,47.3451795],[17.8246927,47.3603913],[17.8841328,47.3899251],[17.9055928,47.382907],[17.934063,47.388516],[17.9493962,47.3791433],[17.9507148,47.369636],[17.9339855,47.3656637],[17.9273352,47.3617936],[17.9566589,47.3529334],[17.9615415,47.3335616],[18.020229,47.3398089],[18.048597,47.3206409],[18.0648402,47.3200185],[18.046685,47.3031092],[18.0542474,47.2782825],[18.0749696,47.2796973],[18.1058512,47.2495329],[18.1572,47.2642264],[18.1710958,47.2532013],[18.1732011,47.2391689],[18.1963231,47.2227508],[18.2165746,47.2246177],[18.2237946,47.2161655],[18.2209761,47.1814931],[18.2277974,47.1735469],[18.2177498,47.1738589],[18.2217753,47.1662708],[18.2123161,47.1639152],[18.2238187,47.1057382],[18.2346048,47.0936301],[18.2036045,47.0793117],[18.2130033,47.0485394],[18.2390619,47.0197819],[18.2584742,47.0252477],[18.2618819,47.020319],[18.2126552,46.9994114],[18.2059605,46.9716706],[18.1894387,46.9897193],[18.1672729,46.997306],[18.0666401,46.9697345],[18.0078022,46.9440363],[17.9075575,46.9159057],[17.9102737,46.894094],[17.8890579,46.8798677],[17.85411,46.8843673],[17.7884767,46.8535793],[17.7296165,46.8404031],[17.6673184,46.8119775],[17.4918651,46.7530279],[17.4454774,46.7477886],[17.4190599,46.7506565],[17.3614258,46.7931052],[17.3507023,46.8165589],[17.3258917,46.8291369],[17.3259048,46.8459],[17.3355035,46.8582324],[17.3177076,46.8762454],[17.326783,46.887808],[17.3047584,46.8988989],[17.2976151,46.9132649],[17.2840373,46.9206748],[17.2306783,46.9206002],[17.2258798,46.9308085],[17.2420737,46.9451571],[17.2384229,46.9546216],[17.2500314,46.9567081],[17.2288647,46.9902712],[17.2066335,47.0055314],[17.1841376,46.9960289],[17.1439154,46.9999349],[17.1428344,47.0147709],[17.1220942,47.0186143],[17.075305,47.0490504]]]}},{"type":"Feature","properties":{"name":"Zala"},"geometry":{"type":"Polygon","coordinates":[[[16.3626409,46.7803976],[16.3948833,46.7899164],[16.4405305,46.7766251],[16.5034626,46.8045932],[16.5020368,46.8346552],[16.556809,46.8385326],[16.567658,46.8681058],[16.58307,46.8711065],[16.5916365,46.8903466],[16.6311679,46.925475],[16.6519499,46.9209589],[16.6867941,46.9376889],[16.7010859,46.9288379],[16.7376053,46.9330118],[16.7790548,46.9258449],[16.7871346,46.9321002],[16.7864756,46.9477057],[16.8175143,46.9502198],[16.8176437,46.9738453],[16.8385094,46.9807238],[16.8478453,46.9702397],[16.8994042,46.975028],[16.9178714,46.9723296],[16.9238605,46.9617709],[16.9916669,46.9633963],[16.9854361,46.9808048],[17.0169665,47.0004154],[17.0205099,46.9951465],[17.0017176,47.0351908],[17.0377086,47.0411608],[17.0450151,47.0245313],[17.0570229,47.0312134],[17.0728889,47.0238692],[17.075305,47.0490504],[17.1220942,47.0186143],[17.1428344,47.0147709],[17.1439154,46.9999349],[17.1841376,46.9960289],[17.2066335,47.0055314],[17.2288647,46.9902712],[17.2500314,46.9567081],[17.2384229,46.9546216],[17.2420737,46.9451571],[17.2258798,46.9308085],[17.2306783,46.9206002],[17.2840373,46.9206748],[17.3039131,46.9076456],[17.3047584,46.8988989],[17.3221527,46.8934538],[17.326954,46.8824793],[17.3177076,46.8762454],[17.3355035,46.8582324],[17.3259048,46.8459],[17.3258917,46.8291369],[17.3507023,46.8165589],[17.3614258,46.7931052],[17.4190599,46.7506565],[17.3614537,46.7316558],[17.2690185,46.7338671],[17.2568178,46.6872639],[17.2214961,46.6716935],[17.2151427,46.6106868],[17.2267858,46.5118287],[17.2012331,46.4847504],[17.193975,46.4872976],[17.1901704,46.4857101],[17.1952666,46.4656077],[17.1883001,46.4292358],[17.1413382,46.4273789],[17.1394296,46.4079214],[17.1279432,46.4058235],[17.0874542,46.4205603],[17.0686224,46.4017499],[17.0546235,46.408361],[17.0543147,46.4167377],[17.0372642,46.4160576],[17.02973,46.3964927],[17.0432762,46.3875952],[17.0438121,46.373128],[17.0550086,46.3679942],[17.0589877,46.3493966],[17.058237,46.3398604],[17.0371864,46.3292018],[17.0409518,46.3167017],[17.0139136,46.3047848],[16.9854725,46.3157012],[16.9781671,46.3052816],[16.9391484,46.2912226],[16.9359413,46.3170666],[16.8970923,46.3125258],[16.8856341,46.3241119],[16.8763354,46.3210289],[16.8799078,46.3362604],[16.861799,46.3464678],[16.8657608,46.3546579],[16.8568038,46.3522301],[16.8360652,46.3650113],[16.8373977,46.3740852],[16.8278738,46.3674142],[16.814128,46.3711482],[16.7931721,46.3871275],[16.7777936,46.3767565],[16.771928,46.3869413],[16.7590791,46.3779401],[16.7544381,46.3889553],[16.7416227,46.3857719],[16.7341851,46.4011369],[16.7187155,46.3915451],[16.6739654,46.4482193],[16.6574656,46.4461446],[16.6637652,46.4594639],[16.6170513,46.4647177],[16.605854,46.4764112],[16.5809027,46.478211],[16.5236253,46.5053038],[16.5332297,46.5143477],[16.5243832,46.5195055],[16.5324201,46.5315368],[16.5175898,46.536311],[16.518648,46.5526799],[16.5083356,46.5652338],[16.4829704,46.5659846],[16.4833498,46.5785173],[16.4455713,46.610952],[16.4248583,46.6131645],[16.4075614,46.6308943],[16.3917736,46.6337266],[16.3852629,46.6538946],[16.3959215,46.664695],[16.4198455,46.6584771],[16.4286336,46.6939738],[16.3685547,46.70423],[16.379852,46.7120219],[16.3715719,46.7234551],[16.3944658,46.7422799],[16.3856992,46.7626513],[16.4068084,46.7730532],[16.3839111,46.7763271],[16.3709447,46.7695484],[16.3626409,46.7803976]]]}}]}